{"type":"FeatureCollection","features":[{"type":"Feature","id":1,"geometry":{"type":"Point","coordinates":[7.6067738,50.3658603]},"properties":{"OBJECTID":1,"FLUSS":"moselle","KM1":0,"KM2":0,"SPLIT":1,"BIO":1}},{"type":"Feature","id":2,"geometry":{"type":"Point","coordinates":[7.5936938,50.3644741]},"properties":{"OBJECTID":2,"FLUSS":"moselle","KM1":1,"KM2":1,"SPLIT":1,"BIO":1}},{"type":"Feature","id":3,"geometry":{"type":"Point","coordinates":[7.5811825,50.368133]},"properties":{"OBJECTID":3,"FLUSS":"moselle","KM1":2,"KM2":2,"SPLIT":1,"BIO":1}},{"type":"Feature","id":4,"geometry":{"type":"Point","coordinates":[7.5687645,50.3665686]},"properties":{"OBJECTID":4,"FLUSS":"moselle","KM1":3,"KM2":3,"SPLIT":1,"BIO":1}},{"type":"Feature","id":5,"geometry":{"type":"Point","coordinates":[7.5626465,50.3584938]},"properties":{"OBJECTID":5,"FLUSS":"moselle","KM1":4,"KM2":4,"SPLIT":1,"BIO":1}},{"type":"Feature","id":6,"geometry":{"type":"Point","coordinates":[7.5539438,50.3515072]},"properties":{"OBJECTID":6,"FLUSS":"moselle","KM1":5,"KM2":5,"SPLIT":1,"BIO":1}},{"type":"Feature","id":7,"geometry":{"type":"Point","coordinates":[7.5547154,50.3427571]},"properties":{"OBJECTID":7,"FLUSS":"moselle","KM1":6,"KM2":6,"SPLIT":1,"BIO":1}},{"type":"Feature","id":8,"geometry":{"type":"Point","coordinates":[7.558017,50.3340553]},"properties":{"OBJECTID":8,"FLUSS":"moselle","KM1":7,"KM2":7,"SPLIT":1,"BIO":1}},{"type":"Feature","id":9,"geometry":{"type":"Point","coordinates":[7.5544634,50.3256982]},"properties":{"OBJECTID":9,"FLUSS":"moselle","KM1":8,"KM2":8,"SPLIT":1,"BIO":1}},{"type":"Feature","id":10,"geometry":{"type":"Point","coordinates":[7.5410691,50.3235211]},"properties":{"OBJECTID":10,"FLUSS":"moselle","KM1":9,"KM2":9,"SPLIT":1,"BIO":1}},{"type":"Feature","id":11,"geometry":{"type":"Point","coordinates":[7.5291154,50.3193764]},"properties":{"OBJECTID":11,"FLUSS":"moselle","KM1":10,"KM2":10,"SPLIT":1,"BIO":1}},{"type":"Feature","id":12,"geometry":{"type":"Point","coordinates":[7.5215146,50.3118269]},"properties":{"OBJECTID":12,"FLUSS":"moselle","KM1":11,"KM2":11,"SPLIT":1,"BIO":1}},{"type":"Feature","id":13,"geometry":{"type":"Point","coordinates":[7.5093577,50.3075709]},"properties":{"OBJECTID":13,"FLUSS":"moselle","KM1":12,"KM2":12,"SPLIT":1,"BIO":1}},{"type":"Feature","id":14,"geometry":{"type":"Point","coordinates":[7.49773,50.3113794]},"properties":{"OBJECTID":14,"FLUSS":"moselle","KM1":13,"KM2":13,"SPLIT":1,"BIO":1}},{"type":"Feature","id":15,"geometry":{"type":"Point","coordinates":[7.4894177,50.3186041]},"properties":{"OBJECTID":15,"FLUSS":"moselle","KM1":14,"KM2":14,"SPLIT":1,"BIO":1}},{"type":"Feature","id":16,"geometry":{"type":"Point","coordinates":[7.4762404,50.3205429]},"properties":{"OBJECTID":16,"FLUSS":"moselle","KM1":15,"KM2":15,"SPLIT":1,"BIO":1}},{"type":"Feature","id":17,"geometry":{"type":"Point","coordinates":[7.4653908,50.3149617]},"properties":{"OBJECTID":17,"FLUSS":"moselle","KM1":16,"KM2":16,"SPLIT":1,"BIO":1}},{"type":"Feature","id":18,"geometry":{"type":"Point","coordinates":[7.4621395,50.3064113]},"properties":{"OBJECTID":18,"FLUSS":"moselle","KM1":17,"KM2":17,"SPLIT":1,"BIO":1}},{"type":"Feature","id":19,"geometry":{"type":"Point","coordinates":[7.4633831,50.297479]},"properties":{"OBJECTID":19,"FLUSS":"moselle","KM1":18,"KM2":18,"SPLIT":1,"BIO":1}},{"type":"Feature","id":20,"geometry":{"type":"Point","coordinates":[7.4585351,50.2893335]},"properties":{"OBJECTID":20,"FLUSS":"moselle","KM1":19,"KM2":19,"SPLIT":1,"BIO":1}},{"type":"Feature","id":21,"geometry":{"type":"Point","coordinates":[7.4579302,50.2808194]},"properties":{"OBJECTID":21,"FLUSS":"moselle","KM1":20,"KM2":20,"SPLIT":1,"BIO":1}},{"type":"Feature","id":22,"geometry":{"type":"Point","coordinates":[7.4556797,50.2720535]},"properties":{"OBJECTID":22,"FLUSS":"moselle","KM1":21,"KM2":21,"SPLIT":1,"BIO":1}},{"type":"Feature","id":23,"geometry":{"type":"Point","coordinates":[7.4483596,50.264436]},"properties":{"OBJECTID":23,"FLUSS":"moselle","KM1":22,"KM2":22,"SPLIT":1,"BIO":1}},{"type":"Feature","id":24,"geometry":{"type":"Point","coordinates":[7.4408692,50.2571322]},"properties":{"OBJECTID":24,"FLUSS":"moselle","KM1":23,"KM2":23,"SPLIT":1,"BIO":1}},{"type":"Feature","id":25,"geometry":{"type":"Point","coordinates":[7.445443,50.2486752]},"properties":{"OBJECTID":25,"FLUSS":"moselle","KM1":24,"KM2":24,"SPLIT":1,"BIO":1}},{"type":"Feature","id":26,"geometry":{"type":"Point","coordinates":[7.4431522,50.2398757]},"properties":{"OBJECTID":26,"FLUSS":"moselle","KM1":25,"KM2":25,"SPLIT":1,"BIO":1}},{"type":"Feature","id":27,"geometry":{"type":"Point","coordinates":[7.4462245,50.2311876]},"properties":{"OBJECTID":27,"FLUSS":"moselle","KM1":26,"KM2":26,"SPLIT":1,"BIO":1}},{"type":"Feature","id":28,"geometry":{"type":"Point","coordinates":[7.4362687,50.2260468]},"properties":{"OBJECTID":28,"FLUSS":"moselle","KM1":27,"KM2":27,"SPLIT":1,"BIO":1}},{"type":"Feature","id":29,"geometry":{"type":"Point","coordinates":[7.4223152,50.226566]},"properties":{"OBJECTID":29,"FLUSS":"moselle","KM1":28,"KM2":28,"SPLIT":1,"BIO":1}},{"type":"Feature","id":30,"geometry":{"type":"Point","coordinates":[7.4095485,50.2232534]},"properties":{"OBJECTID":30,"FLUSS":"moselle","KM1":29,"KM2":29,"SPLIT":1,"BIO":1}},{"type":"Feature","id":31,"geometry":{"type":"Point","coordinates":[7.3965879,50.2198068]},"properties":{"OBJECTID":31,"FLUSS":"moselle","KM1":30,"KM2":30,"SPLIT":1,"BIO":1}},{"type":"Feature","id":32,"geometry":{"type":"Point","coordinates":[7.3866771,50.2136498]},"properties":{"OBJECTID":32,"FLUSS":"moselle","KM1":31,"KM2":31,"SPLIT":1,"BIO":1}},{"type":"Feature","id":33,"geometry":{"type":"Point","coordinates":[7.3800878,50.2057545]},"properties":{"OBJECTID":33,"FLUSS":"moselle","KM1":32,"KM2":32,"SPLIT":1,"BIO":1}},{"type":"Feature","id":34,"geometry":{"type":"Point","coordinates":[7.3750784,50.1974824]},"properties":{"OBJECTID":34,"FLUSS":"moselle","KM1":33,"KM2":33,"SPLIT":1,"BIO":1}},{"type":"Feature","id":35,"geometry":{"type":"Point","coordinates":[7.3693584,50.1893659]},"properties":{"OBJECTID":35,"FLUSS":"moselle","KM1":34,"KM2":34,"SPLIT":1,"BIO":1}},{"type":"Feature","id":36,"geometry":{"type":"Point","coordinates":[7.3567827,50.1856183]},"properties":{"OBJECTID":36,"FLUSS":"moselle","KM1":35,"KM2":35,"SPLIT":1,"BIO":1}},{"type":"Feature","id":37,"geometry":{"type":"Point","coordinates":[7.3431523,50.1834508]},"properties":{"OBJECTID":37,"FLUSS":"moselle","KM1":36,"KM2":36,"SPLIT":1,"BIO":1}},{"type":"Feature","id":38,"geometry":{"type":"Point","coordinates":[7.329464,50.183602]},"properties":{"OBJECTID":38,"FLUSS":"moselle","KM1":37,"KM2":37,"SPLIT":1,"BIO":1}},{"type":"Feature","id":39,"geometry":{"type":"Point","coordinates":[7.3160445,50.1860546]},"properties":{"OBJECTID":39,"FLUSS":"moselle","KM1":38,"KM2":38,"SPLIT":1,"BIO":1}},{"type":"Feature","id":40,"geometry":{"type":"Point","coordinates":[7.3037547,50.1829967]},"properties":{"OBJECTID":40,"FLUSS":"moselle","KM1":39,"KM2":39,"SPLIT":1,"BIO":1}},{"type":"Feature","id":41,"geometry":{"type":"Point","coordinates":[7.2977346,50.1749268]},"properties":{"OBJECTID":41,"FLUSS":"moselle","KM1":40,"KM2":40,"SPLIT":1,"BIO":1}},{"type":"Feature","id":42,"geometry":{"type":"Point","coordinates":[7.2858331,50.1704641]},"properties":{"OBJECTID":42,"FLUSS":"moselle","KM1":41,"KM2":41,"SPLIT":1,"BIO":1}},{"type":"Feature","id":43,"geometry":{"type":"Point","coordinates":[7.2726823,50.1676889]},"properties":{"OBJECTID":43,"FLUSS":"moselle","KM1":42,"KM2":42,"SPLIT":1,"BIO":1}},{"type":"Feature","id":44,"geometry":{"type":"Point","coordinates":[7.258682,50.1673701]},"properties":{"OBJECTID":44,"FLUSS":"moselle","KM1":43,"KM2":43,"SPLIT":1,"BIO":1}},{"type":"Feature","id":45,"geometry":{"type":"Point","coordinates":[7.2447122,50.1679568]},"properties":{"OBJECTID":45,"FLUSS":"moselle","KM1":44,"KM2":44,"SPLIT":1,"BIO":1}},{"type":"Feature","id":46,"geometry":{"type":"Point","coordinates":[7.2307086,50.1680856]},"properties":{"OBJECTID":46,"FLUSS":"moselle","KM1":45,"KM2":45,"SPLIT":1,"BIO":1}},{"type":"Feature","id":47,"geometry":{"type":"Point","coordinates":[7.2167249,50.1680376]},"properties":{"OBJECTID":47,"FLUSS":"moselle","KM1":46,"KM2":46,"SPLIT":1,"BIO":1}},{"type":"Feature","id":48,"geometry":{"type":"Point","coordinates":[7.204335,50.1643505]},"properties":{"OBJECTID":48,"FLUSS":"moselle","KM1":47,"KM2":47,"SPLIT":1,"BIO":1}},{"type":"Feature","id":49,"geometry":{"type":"Point","coordinates":[7.1925115,50.1604689]},"properties":{"OBJECTID":49,"FLUSS":"moselle","KM1":48,"KM2":48,"SPLIT":1,"BIO":1}},{"type":"Feature","id":50,"geometry":{"type":"Point","coordinates":[7.1787842,50.1615021]},"properties":{"OBJECTID":50,"FLUSS":"moselle","KM1":49,"KM2":49,"SPLIT":1,"BIO":1}},{"type":"Feature","id":51,"geometry":{"type":"Point","coordinates":[7.1699327,50.1549741]},"properties":{"OBJECTID":51,"FLUSS":"moselle","KM1":50,"KM2":50,"SPLIT":1,"BIO":1}},{"type":"Feature","id":52,"geometry":{"type":"Point","coordinates":[7.1683173,50.1460592]},"properties":{"OBJECTID":52,"FLUSS":"moselle","KM1":51,"KM2":51,"SPLIT":1,"BIO":1}},{"type":"Feature","id":53,"geometry":{"type":"Point","coordinates":[7.1756142,50.1393311]},"properties":{"OBJECTID":53,"FLUSS":"moselle","KM1":52,"KM2":52,"SPLIT":1,"BIO":1}},{"type":"Feature","id":54,"geometry":{"type":"Point","coordinates":[7.1893669,50.1409062]},"properties":{"OBJECTID":54,"FLUSS":"moselle","KM1":53,"KM2":53,"SPLIT":1,"BIO":1}},{"type":"Feature","id":55,"geometry":{"type":"Point","coordinates":[7.2033685,50.1412337]},"properties":{"OBJECTID":55,"FLUSS":"moselle","KM1":54,"KM2":54,"SPLIT":1,"BIO":1}},{"type":"Feature","id":56,"geometry":{"type":"Point","coordinates":[7.2165115,50.1431719]},"properties":{"OBJECTID":56,"FLUSS":"moselle","KM1":55,"KM2":55,"SPLIT":1,"BIO":1}},{"type":"Feature","id":57,"geometry":{"type":"Point","coordinates":[7.2291914,50.146215]},"properties":{"OBJECTID":57,"FLUSS":"moselle","KM1":56,"KM2":56,"SPLIT":1,"BIO":1}},{"type":"Feature","id":58,"geometry":{"type":"Point","coordinates":[7.236277,50.13948]},"properties":{"OBJECTID":58,"FLUSS":"moselle","KM1":57,"KM2":57,"SPLIT":1,"BIO":1}},{"type":"Feature","id":59,"geometry":{"type":"Point","coordinates":[7.2279163,50.1324469]},"properties":{"OBJECTID":59,"FLUSS":"moselle","KM1":58,"KM2":58,"SPLIT":1,"BIO":1}},{"type":"Feature","id":60,"geometry":{"type":"Point","coordinates":[7.2285542,50.1238669]},"properties":{"OBJECTID":60,"FLUSS":"moselle","KM1":59,"KM2":59,"SPLIT":1,"BIO":1}},{"type":"Feature","id":61,"geometry":{"type":"Point","coordinates":[7.2355286,50.1162117]},"properties":{"OBJECTID":61,"FLUSS":"moselle","KM1":60,"KM2":60,"SPLIT":1,"BIO":1}},{"type":"Feature","id":62,"geometry":{"type":"Point","coordinates":[7.2351867,50.1080604]},"properties":{"OBJECTID":62,"FLUSS":"moselle","KM1":61,"KM2":61,"SPLIT":1,"BIO":1}},{"type":"Feature","id":63,"geometry":{"type":"Point","coordinates":[7.2221113,50.1061826]},"properties":{"OBJECTID":63,"FLUSS":"moselle","KM1":62,"KM2":62,"SPLIT":1,"BIO":1}},{"type":"Feature","id":64,"geometry":{"type":"Point","coordinates":[7.2106922,50.1110828]},"properties":{"OBJECTID":64,"FLUSS":"moselle","KM1":63,"KM2":63,"SPLIT":1,"BIO":1}},{"type":"Feature","id":65,"geometry":{"type":"Point","coordinates":[7.1985173,50.1121133]},"properties":{"OBJECTID":65,"FLUSS":"moselle","KM1":64,"KM2":64,"SPLIT":1,"BIO":1}},{"type":"Feature","id":66,"geometry":{"type":"Point","coordinates":[7.1909494,50.104837]},"properties":{"OBJECTID":66,"FLUSS":"moselle","KM1":65,"KM2":65,"SPLIT":1,"BIO":1}},{"type":"Feature","id":67,"geometry":{"type":"Point","coordinates":[7.1941611,50.0961433]},"properties":{"OBJECTID":67,"FLUSS":"moselle","KM1":66,"KM2":66,"SPLIT":1,"BIO":1}},{"type":"Feature","id":68,"geometry":{"type":"Point","coordinates":[7.2024941,50.0889483]},"properties":{"OBJECTID":68,"FLUSS":"moselle","KM1":67,"KM2":67,"SPLIT":1,"BIO":1}},{"type":"Feature","id":69,"geometry":{"type":"Point","coordinates":[7.2026344,50.0810346]},"properties":{"OBJECTID":69,"FLUSS":"moselle","KM1":68,"KM2":68,"SPLIT":1,"BIO":1}},{"type":"Feature","id":70,"geometry":{"type":"Point","coordinates":[7.1900179,50.0805316]},"properties":{"OBJECTID":70,"FLUSS":"moselle","KM1":69,"KM2":69,"SPLIT":1,"BIO":1}},{"type":"Feature","id":71,"geometry":{"type":"Point","coordinates":[7.1778227,50.0848756]},"properties":{"OBJECTID":71,"FLUSS":"moselle","KM1":70,"KM2":70,"SPLIT":1,"BIO":1}},{"type":"Feature","id":72,"geometry":{"type":"Point","coordinates":[7.1652575,50.0887973]},"properties":{"OBJECTID":72,"FLUSS":"moselle","KM1":71,"KM2":71,"SPLIT":1,"BIO":1}},{"type":"Feature","id":73,"geometry":{"type":"Point","coordinates":[7.1546335,50.094624]},"properties":{"OBJECTID":73,"FLUSS":"moselle","KM1":72,"KM2":72,"SPLIT":1,"BIO":1}},{"type":"Feature","id":74,"geometry":{"type":"Point","coordinates":[7.1421733,50.0986718]},"properties":{"OBJECTID":74,"FLUSS":"moselle","KM1":73,"KM2":73,"SPLIT":1,"BIO":1}},{"type":"Feature","id":75,"geometry":{"type":"Point","coordinates":[7.1312532,50.1042719]},"properties":{"OBJECTID":75,"FLUSS":"moselle","KM1":74,"KM2":74,"SPLIT":1,"BIO":1}},{"type":"Feature","id":76,"geometry":{"type":"Point","coordinates":[7.118622,50.1038598]},"properties":{"OBJECTID":76,"FLUSS":"moselle","KM1":75,"KM2":75,"SPLIT":1,"BIO":1}},{"type":"Feature","id":77,"geometry":{"type":"Point","coordinates":[7.1277266,50.0984314]},"properties":{"OBJECTID":77,"FLUSS":"moselle","KM1":76,"KM2":76,"SPLIT":1,"BIO":1}},{"type":"Feature","id":78,"geometry":{"type":"Point","coordinates":[7.1357531,50.0923756]},"properties":{"OBJECTID":78,"FLUSS":"moselle","KM1":77,"KM2":77,"SPLIT":1,"BIO":1}},{"type":"Feature","id":79,"geometry":{"type":"Point","coordinates":[7.132596,50.0836455]},"properties":{"OBJECTID":79,"FLUSS":"moselle","KM1":78,"KM2":78,"SPLIT":1,"BIO":1}},{"type":"Feature","id":80,"geometry":{"type":"Point","coordinates":[7.1317875,50.0746999]},"properties":{"OBJECTID":80,"FLUSS":"moselle","KM1":79,"KM2":79,"SPLIT":1,"BIO":1}},{"type":"Feature","id":81,"geometry":{"type":"Point","coordinates":[7.1309988,50.0657309]},"properties":{"OBJECTID":81,"FLUSS":"moselle","KM1":80,"KM2":80,"SPLIT":1,"BIO":1}},{"type":"Feature","id":82,"geometry":{"type":"Point","coordinates":[7.1293762,50.056838]},"properties":{"OBJECTID":82,"FLUSS":"moselle","KM1":81,"KM2":81,"SPLIT":1,"BIO":1}},{"type":"Feature","id":83,"geometry":{"type":"Point","coordinates":[7.1335898,50.0488286]},"properties":{"OBJECTID":83,"FLUSS":"moselle","KM1":82,"KM2":82,"SPLIT":1,"BIO":1}},{"type":"Feature","id":84,"geometry":{"type":"Point","coordinates":[7.144877,50.0436756]},"properties":{"OBJECTID":84,"FLUSS":"moselle","KM1":83,"KM2":83,"SPLIT":1,"BIO":1}},{"type":"Feature","id":85,"geometry":{"type":"Point","coordinates":[7.1582558,50.0411077]},"properties":{"OBJECTID":85,"FLUSS":"moselle","KM1":84,"KM2":84,"SPLIT":1,"BIO":1}},{"type":"Feature","id":86,"geometry":{"type":"Point","coordinates":[7.1712516,50.0378377]},"properties":{"OBJECTID":86,"FLUSS":"moselle","KM1":85,"KM2":85,"SPLIT":1,"BIO":1}},{"type":"Feature","id":87,"geometry":{"type":"Point","coordinates":[7.178631,50.0304646]},"properties":{"OBJECTID":87,"FLUSS":"moselle","KM1":86,"KM2":86,"SPLIT":1,"BIO":1}},{"type":"Feature","id":88,"geometry":{"type":"Point","coordinates":[7.1810508,50.0216196]},"properties":{"OBJECTID":88,"FLUSS":"moselle","KM1":87,"KM2":87,"SPLIT":1,"BIO":1}},{"type":"Feature","id":89,"geometry":{"type":"Point","coordinates":[7.174651,50.0139994]},"properties":{"OBJECTID":89,"FLUSS":"moselle","KM1":88,"KM2":88,"SPLIT":1,"BIO":1}},{"type":"Feature","id":90,"geometry":{"type":"Point","coordinates":[7.1611471,50.0139522]},"properties":{"OBJECTID":90,"FLUSS":"moselle","KM1":89,"KM2":89,"SPLIT":1,"BIO":1}},{"type":"Feature","id":91,"geometry":{"type":"Point","coordinates":[7.1529664,50.0207117]},"properties":{"OBJECTID":91,"FLUSS":"moselle","KM1":90,"KM2":90,"SPLIT":1,"BIO":1}},{"type":"Feature","id":92,"geometry":{"type":"Point","coordinates":[7.1502498,50.0295078]},"properties":{"OBJECTID":92,"FLUSS":"moselle","KM1":91,"KM2":91,"SPLIT":1,"BIO":1}},{"type":"Feature","id":93,"geometry":{"type":"Point","coordinates":[7.1421187,50.0366366]},"properties":{"OBJECTID":93,"FLUSS":"moselle","KM1":92,"KM2":92,"SPLIT":1,"BIO":1}},{"type":"Feature","id":94,"geometry":{"type":"Point","coordinates":[7.1320003,50.0428155]},"properties":{"OBJECTID":94,"FLUSS":"moselle","KM1":93,"KM2":93,"SPLIT":1,"BIO":1}},{"type":"Feature","id":95,"geometry":{"type":"Point","coordinates":[7.119748,50.0438536]},"properties":{"OBJECTID":95,"FLUSS":"moselle","KM1":94,"KM2":94,"SPLIT":1,"BIO":1}},{"type":"Feature","id":96,"geometry":{"type":"Point","coordinates":[7.1141187,50.0358613]},"properties":{"OBJECTID":96,"FLUSS":"moselle","KM1":95,"KM2":95,"SPLIT":1,"BIO":1}},{"type":"Feature","id":97,"geometry":{"type":"Point","coordinates":[7.1152351,50.026977]},"properties":{"OBJECTID":97,"FLUSS":"moselle","KM1":96,"KM2":96,"SPLIT":1,"BIO":1}},{"type":"Feature","id":98,"geometry":{"type":"Point","coordinates":[7.1209079,50.0187809]},"properties":{"OBJECTID":98,"FLUSS":"moselle","KM1":97,"KM2":97,"SPLIT":1,"BIO":1}},{"type":"Feature","id":99,"geometry":{"type":"Point","coordinates":[7.1208612,50.0100578]},"properties":{"OBJECTID":99,"FLUSS":"moselle","KM1":98,"KM2":98,"SPLIT":1,"BIO":1}},{"type":"Feature","id":100,"geometry":{"type":"Point","coordinates":[7.1152785,50.0019719]},"properties":{"OBJECTID":100,"FLUSS":"moselle","KM1":99,"KM2":99,"SPLIT":1,"BIO":1}},{"type":"Feature","id":101,"geometry":{"type":"Point","coordinates":[7.1147199,49.9929905]},"properties":{"OBJECTID":101,"FLUSS":"moselle","KM1":100,"KM2":100,"SPLIT":1,"BIO":1}},{"type":"Feature","id":102,"geometry":{"type":"Point","coordinates":[7.1185159,49.9843954]},"properties":{"OBJECTID":102,"FLUSS":"moselle","KM1":101,"KM2":101,"SPLIT":1,"BIO":1}},{"type":"Feature","id":103,"geometry":{"type":"Point","coordinates":[7.1249935,49.976448]},"properties":{"OBJECTID":103,"FLUSS":"moselle","KM1":102,"KM2":102,"SPLIT":1,"BIO":1}},{"type":"Feature","id":104,"geometry":{"type":"Point","coordinates":[7.1327831,49.9689877]},"properties":{"OBJECTID":104,"FLUSS":"moselle","KM1":103,"KM2":103,"SPLIT":1,"BIO":1}},{"type":"Feature","id":105,"geometry":{"type":"Point","coordinates":[7.1328888,49.9600588]},"properties":{"OBJECTID":105,"FLUSS":"moselle","KM1":104,"KM2":104,"SPLIT":1,"BIO":1}},{"type":"Feature","id":106,"geometry":{"type":"Point","coordinates":[7.1282797,49.9520147]},"properties":{"OBJECTID":106,"FLUSS":"moselle","KM1":105,"KM2":105,"SPLIT":1,"BIO":1}},{"type":"Feature","id":107,"geometry":{"type":"Point","coordinates":[7.1162968,49.9493754]},"properties":{"OBJECTID":107,"FLUSS":"moselle","KM1":106,"KM2":106,"SPLIT":1,"BIO":1}},{"type":"Feature","id":108,"geometry":{"type":"Point","coordinates":[7.1048069,49.9542386]},"properties":{"OBJECTID":108,"FLUSS":"moselle","KM1":107,"KM2":107,"SPLIT":1,"BIO":1}},{"type":"Feature","id":109,"geometry":{"type":"Point","coordinates":[7.1011711,49.9625311]},"properties":{"OBJECTID":109,"FLUSS":"moselle","KM1":108,"KM2":108,"SPLIT":1,"BIO":1}},{"type":"Feature","id":110,"geometry":{"type":"Point","coordinates":[7.1052744,49.9711195]},"properties":{"OBJECTID":110,"FLUSS":"moselle","KM1":109,"KM2":109,"SPLIT":1,"BIO":1}},{"type":"Feature","id":111,"geometry":{"type":"Point","coordinates":[7.1065878,49.9798443]},"properties":{"OBJECTID":111,"FLUSS":"moselle","KM1":110,"KM2":110,"SPLIT":1,"BIO":1}},{"type":"Feature","id":112,"geometry":{"type":"Point","coordinates":[7.0954194,49.982476]},"properties":{"OBJECTID":112,"FLUSS":"moselle","KM1":111,"KM2":111,"SPLIT":1,"BIO":1}},{"type":"Feature","id":113,"geometry":{"type":"Point","coordinates":[7.088126,49.974946]},"properties":{"OBJECTID":113,"FLUSS":"moselle","KM1":112,"KM2":112,"SPLIT":1,"BIO":1}},{"type":"Feature","id":114,"geometry":{"type":"Point","coordinates":[7.0794957,49.9680883]},"properties":{"OBJECTID":114,"FLUSS":"moselle","KM1":113,"KM2":113,"SPLIT":1,"BIO":1}},{"type":"Feature","id":115,"geometry":{"type":"Point","coordinates":[7.0657831,49.9683315]},"properties":{"OBJECTID":115,"FLUSS":"moselle","KM1":114,"KM2":114,"SPLIT":1,"BIO":1}},{"type":"Feature","id":116,"geometry":{"type":"Point","coordinates":[7.053144,49.9721444]},"properties":{"OBJECTID":116,"FLUSS":"moselle","KM1":115,"KM2":115,"SPLIT":1,"BIO":1}},{"type":"Feature","id":117,"geometry":{"type":"Point","coordinates":[7.0415746,49.9771623]},"properties":{"OBJECTID":117,"FLUSS":"moselle","KM1":116,"KM2":116,"SPLIT":1,"BIO":1}},{"type":"Feature","id":118,"geometry":{"type":"Point","coordinates":[7.0285626,49.9804009]},"properties":{"OBJECTID":118,"FLUSS":"moselle","KM1":117,"KM2":117,"SPLIT":1,"BIO":1}},{"type":"Feature","id":119,"geometry":{"type":"Point","coordinates":[7.0147562,49.9808543]},"properties":{"OBJECTID":119,"FLUSS":"moselle","KM1":118,"KM2":118,"SPLIT":1,"BIO":1}},{"type":"Feature","id":120,"geometry":{"type":"Point","coordinates":[7.0043375,49.97508]},"properties":{"OBJECTID":120,"FLUSS":"moselle","KM1":119,"KM2":119,"SPLIT":1,"BIO":1}},{"type":"Feature","id":121,"geometry":{"type":"Point","coordinates":[6.9991917,49.9667599]},"properties":{"OBJECTID":121,"FLUSS":"moselle","KM1":120,"KM2":120,"SPLIT":1,"BIO":1}},{"type":"Feature","id":122,"geometry":{"type":"Point","coordinates":[7.000864,49.9581163]},"properties":{"OBJECTID":122,"FLUSS":"moselle","KM1":121,"KM2":121,"SPLIT":1,"BIO":1}},{"type":"Feature","id":123,"geometry":{"type":"Point","coordinates":[7.0115261,49.9523519]},"properties":{"OBJECTID":123,"FLUSS":"moselle","KM1":122,"KM2":122,"SPLIT":1,"BIO":1}},{"type":"Feature","id":124,"geometry":{"type":"Point","coordinates":[7.0242239,49.9486492]},"properties":{"OBJECTID":124,"FLUSS":"moselle","KM1":123,"KM2":123,"SPLIT":1,"BIO":1}},{"type":"Feature","id":125,"geometry":{"type":"Point","coordinates":[7.0374297,49.9457579]},"properties":{"OBJECTID":125,"FLUSS":"moselle","KM1":124,"KM2":124,"SPLIT":1,"BIO":1}},{"type":"Feature","id":126,"geometry":{"type":"Point","coordinates":[7.0493651,49.9411263]},"properties":{"OBJECTID":126,"FLUSS":"moselle","KM1":125,"KM2":125,"SPLIT":1,"BIO":1}},{"type":"Feature","id":127,"geometry":{"type":"Point","coordinates":[7.05889,49.9345554]},"properties":{"OBJECTID":127,"FLUSS":"moselle","KM1":126,"KM2":126,"SPLIT":1,"BIO":1}},{"type":"Feature","id":128,"geometry":{"type":"Point","coordinates":[7.0663697,49.9270836]},"properties":{"OBJECTID":128,"FLUSS":"moselle","KM1":127,"KM2":127,"SPLIT":1,"BIO":1}},{"type":"Feature","id":129,"geometry":{"type":"Point","coordinates":[7.0719436,49.9188848]},"properties":{"OBJECTID":129,"FLUSS":"moselle","KM1":128,"KM2":128,"SPLIT":1,"BIO":1}},{"type":"Feature","id":130,"geometry":{"type":"Point","coordinates":[7.0686729,49.9108861]},"properties":{"OBJECTID":130,"FLUSS":"moselle","KM1":129,"KM2":129,"SPLIT":1,"BIO":1}},{"type":"Feature","id":131,"geometry":{"type":"Point","coordinates":[7.0563136,49.9068908]},"properties":{"OBJECTID":131,"FLUSS":"moselle","KM1":130,"KM2":130,"SPLIT":1,"BIO":1}},{"type":"Feature","id":132,"geometry":{"type":"Point","coordinates":[7.0443001,49.9107133]},"properties":{"OBJECTID":132,"FLUSS":"moselle","KM1":131,"KM2":131,"SPLIT":1,"BIO":1}},{"type":"Feature","id":133,"geometry":{"type":"Point","coordinates":[7.0328345,49.915628]},"properties":{"OBJECTID":133,"FLUSS":"moselle","KM1":132,"KM2":132,"SPLIT":1,"BIO":1}},{"type":"Feature","id":134,"geometry":{"type":"Point","coordinates":[7.0188878,49.9155821]},"properties":{"OBJECTID":134,"FLUSS":"moselle","KM1":133,"KM2":133,"SPLIT":1,"BIO":1}},{"type":"Feature","id":135,"geometry":{"type":"Point","coordinates":[7.005016,49.9146972]},"properties":{"OBJECTID":135,"FLUSS":"moselle","KM1":134,"KM2":134,"SPLIT":1,"BIO":1}},{"type":"Feature","id":136,"geometry":{"type":"Point","coordinates":[6.9915567,49.9123321]},"properties":{"OBJECTID":136,"FLUSS":"moselle","KM1":135,"KM2":135,"SPLIT":1,"BIO":1}},{"type":"Feature","id":137,"geometry":{"type":"Point","coordinates":[6.9788431,49.9086428]},"properties":{"OBJECTID":137,"FLUSS":"moselle","KM1":136,"KM2":136,"SPLIT":1,"BIO":1}},{"type":"Feature","id":138,"geometry":{"type":"Point","coordinates":[6.9674482,49.9034765]},"properties":{"OBJECTID":138,"FLUSS":"moselle","KM1":137,"KM2":137,"SPLIT":1,"BIO":1}},{"type":"Feature","id":139,"geometry":{"type":"Point","coordinates":[6.9555621,49.8988907]},"properties":{"OBJECTID":139,"FLUSS":"moselle","KM1":138,"KM2":138,"SPLIT":1,"BIO":1}},{"type":"Feature","id":140,"geometry":{"type":"Point","coordinates":[6.9479439,49.8914941]},"properties":{"OBJECTID":140,"FLUSS":"moselle","KM1":139,"KM2":139,"SPLIT":1,"BIO":1}},{"type":"Feature","id":141,"geometry":{"type":"Point","coordinates":[6.9462461,49.8826897]},"properties":{"OBJECTID":141,"FLUSS":"moselle","KM1":140,"KM2":140,"SPLIT":1,"BIO":1}},{"type":"Feature","id":142,"geometry":{"type":"Point","coordinates":[6.9475571,49.8737379]},"properties":{"OBJECTID":142,"FLUSS":"moselle","KM1":141,"KM2":141,"SPLIT":1,"BIO":1}},{"type":"Feature","id":143,"geometry":{"type":"Point","coordinates":[6.9441391,49.865201]},"properties":{"OBJECTID":143,"FLUSS":"moselle","KM1":142,"KM2":142,"SPLIT":1,"BIO":1}},{"type":"Feature","id":144,"geometry":{"type":"Point","coordinates":[6.9318193,49.8629788]},"properties":{"OBJECTID":144,"FLUSS":"moselle","KM1":143,"KM2":143,"SPLIT":1,"BIO":1}},{"type":"Feature","id":145,"geometry":{"type":"Point","coordinates":[6.9277714,49.8704645]},"properties":{"OBJECTID":145,"FLUSS":"moselle","KM1":144,"KM2":144,"SPLIT":1,"BIO":1}},{"type":"Feature","id":146,"geometry":{"type":"Point","coordinates":[6.9332899,49.8786591]},"properties":{"OBJECTID":146,"FLUSS":"moselle","KM1":145,"KM2":145,"SPLIT":1,"BIO":1}},{"type":"Feature","id":147,"geometry":{"type":"Point","coordinates":[6.9259908,49.8855895]},"properties":{"OBJECTID":147,"FLUSS":"moselle","KM1":146,"KM2":146,"SPLIT":1,"BIO":1}},{"type":"Feature","id":148,"geometry":{"type":"Point","coordinates":[6.9121278,49.884856]},"properties":{"OBJECTID":148,"FLUSS":"moselle","KM1":147,"KM2":147,"SPLIT":1,"BIO":1}},{"type":"Feature","id":149,"geometry":{"type":"Point","coordinates":[6.8999204,49.8810993]},"properties":{"OBJECTID":149,"FLUSS":"moselle","KM1":148,"KM2":148,"SPLIT":1,"BIO":1}},{"type":"Feature","id":150,"geometry":{"type":"Point","coordinates":[6.8939079,49.8731906]},"properties":{"OBJECTID":150,"FLUSS":"moselle","KM1":149,"KM2":149,"SPLIT":1,"BIO":1}},{"type":"Feature","id":151,"geometry":{"type":"Point","coordinates":[6.8961907,49.8643984]},"properties":{"OBJECTID":151,"FLUSS":"moselle","KM1":150,"KM2":150,"SPLIT":1,"BIO":1}},{"type":"Feature","id":152,"geometry":{"type":"Point","coordinates":[6.8925421,49.8557904]},"properties":{"OBJECTID":152,"FLUSS":"moselle","KM1":151,"KM2":151,"SPLIT":1,"BIO":1}},{"type":"Feature","id":153,"geometry":{"type":"Point","coordinates":[6.8919659,49.8470978]},"properties":{"OBJECTID":153,"FLUSS":"moselle","KM1":152,"KM2":152,"SPLIT":1,"BIO":1}},{"type":"Feature","id":154,"geometry":{"type":"Point","coordinates":[6.8960472,49.8385058]},"properties":{"OBJECTID":154,"FLUSS":"moselle","KM1":153,"KM2":153,"SPLIT":1,"BIO":1}},{"type":"Feature","id":155,"geometry":{"type":"Point","coordinates":[6.9017844,49.8303123]},"properties":{"OBJECTID":155,"FLUSS":"moselle","KM1":154,"KM2":154,"SPLIT":1,"BIO":1}},{"type":"Feature","id":156,"geometry":{"type":"Point","coordinates":[6.904734,49.8215777]},"properties":{"OBJECTID":156,"FLUSS":"moselle","KM1":155,"KM2":155,"SPLIT":1,"BIO":1}},{"type":"Feature","id":157,"geometry":{"type":"Point","coordinates":[6.897238,49.8151347]},"properties":{"OBJECTID":157,"FLUSS":"moselle","KM1":156,"KM2":156,"SPLIT":1,"BIO":1}},{"type":"Feature","id":158,"geometry":{"type":"Point","coordinates":[6.8863318,49.8201565]},"properties":{"OBJECTID":158,"FLUSS":"moselle","KM1":157,"KM2":157,"SPLIT":1,"BIO":1}},{"type":"Feature","id":159,"geometry":{"type":"Point","coordinates":[6.8827537,49.8287644]},"properties":{"OBJECTID":159,"FLUSS":"moselle","KM1":158,"KM2":158,"SPLIT":1,"BIO":1}},{"type":"Feature","id":160,"geometry":{"type":"Point","coordinates":[6.8791373,49.8373674]},"properties":{"OBJECTID":160,"FLUSS":"moselle","KM1":159,"KM2":159,"SPLIT":1,"BIO":1}},{"type":"Feature","id":161,"geometry":{"type":"Point","coordinates":[6.8696154,49.8435093]},"properties":{"OBJECTID":161,"FLUSS":"moselle","KM1":160,"KM2":160,"SPLIT":1,"BIO":1}},{"type":"Feature","id":162,"geometry":{"type":"Point","coordinates":[6.8565273,49.8411724]},"properties":{"OBJECTID":162,"FLUSS":"moselle","KM1":161,"KM2":161,"SPLIT":1,"BIO":1}},{"type":"Feature","id":163,"geometry":{"type":"Point","coordinates":[6.8433008,49.8384425]},"properties":{"OBJECTID":163,"FLUSS":"moselle","KM1":162,"KM2":162,"SPLIT":1,"BIO":1}},{"type":"Feature","id":164,"geometry":{"type":"Point","coordinates":[6.8334889,49.8329829]},"properties":{"OBJECTID":164,"FLUSS":"moselle","KM1":163,"KM2":163,"SPLIT":1,"BIO":1}},{"type":"Feature","id":165,"geometry":{"type":"Point","coordinates":[6.8396293,49.824979]},"properties":{"OBJECTID":165,"FLUSS":"moselle","KM1":164,"KM2":164,"SPLIT":1,"BIO":1}},{"type":"Feature","id":166,"geometry":{"type":"Point","coordinates":[6.8459231,49.8169848]},"properties":{"OBJECTID":166,"FLUSS":"moselle","KM1":165,"KM2":165,"SPLIT":1,"BIO":1}},{"type":"Feature","id":167,"geometry":{"type":"Point","coordinates":[6.8504157,49.8084995]},"properties":{"OBJECTID":167,"FLUSS":"moselle","KM1":166,"KM2":166,"SPLIT":1,"BIO":1}},{"type":"Feature","id":168,"geometry":{"type":"Point","coordinates":[6.8542366,49.7998931]},"properties":{"OBJECTID":168,"FLUSS":"moselle","KM1":167,"KM2":167,"SPLIT":1,"BIO":1}},{"type":"Feature","id":169,"geometry":{"type":"Point","coordinates":[6.8512674,49.7911995]},"properties":{"OBJECTID":169,"FLUSS":"moselle","KM1":168,"KM2":168,"SPLIT":1,"BIO":1}},{"type":"Feature","id":170,"geometry":{"type":"Point","coordinates":[6.8413225,49.7928409]},"properties":{"OBJECTID":170,"FLUSS":"moselle","KM1":169,"KM2":169,"SPLIT":1,"BIO":1}},{"type":"Feature","id":171,"geometry":{"type":"Point","coordinates":[6.832292,49.7973976]},"properties":{"OBJECTID":171,"FLUSS":"moselle","KM1":170,"KM2":170,"SPLIT":1,"BIO":1}},{"type":"Feature","id":172,"geometry":{"type":"Point","coordinates":[6.8209669,49.792416]},"properties":{"OBJECTID":172,"FLUSS":"moselle","KM1":171,"KM2":171,"SPLIT":1,"BIO":1}},{"type":"Feature","id":173,"geometry":{"type":"Point","coordinates":[6.8078228,49.7949808]},"properties":{"OBJECTID":173,"FLUSS":"moselle","KM1":172,"KM2":172,"SPLIT":1,"BIO":1}},{"type":"Feature","id":174,"geometry":{"type":"Point","coordinates":[6.7951865,49.7987671]},"properties":{"OBJECTID":174,"FLUSS":"moselle","KM1":173,"KM2":173,"SPLIT":1,"BIO":1}},{"type":"Feature","id":175,"geometry":{"type":"Point","coordinates":[6.7834942,49.8036155]},"properties":{"OBJECTID":175,"FLUSS":"moselle","KM1":174,"KM2":174,"SPLIT":1,"BIO":1}},{"type":"Feature","id":176,"geometry":{"type":"Point","coordinates":[6.7738132,49.8100642]},"properties":{"OBJECTID":176,"FLUSS":"moselle","KM1":175,"KM2":175,"SPLIT":1,"BIO":1}},{"type":"Feature","id":177,"geometry":{"type":"Point","coordinates":[6.7621957,49.8143352]},"properties":{"OBJECTID":177,"FLUSS":"moselle","KM1":176,"KM2":176,"SPLIT":1,"BIO":1}},{"type":"Feature","id":178,"geometry":{"type":"Point","coordinates":[6.7485985,49.813079]},"properties":{"OBJECTID":178,"FLUSS":"moselle","KM1":177,"KM2":177,"SPLIT":1,"BIO":1}},{"type":"Feature","id":179,"geometry":{"type":"Point","coordinates":[6.7362024,49.8158493]},"properties":{"OBJECTID":179,"FLUSS":"moselle","KM1":178,"KM2":178,"SPLIT":1,"BIO":1}},{"type":"Feature","id":180,"geometry":{"type":"Point","coordinates":[6.7245148,49.8206968]},"properties":{"OBJECTID":180,"FLUSS":"moselle","KM1":179,"KM2":179,"SPLIT":1,"BIO":1}},{"type":"Feature","id":181,"geometry":{"type":"Point","coordinates":[6.711022,49.8210456]},"properties":{"OBJECTID":181,"FLUSS":"moselle","KM1":180,"KM2":180,"SPLIT":1,"BIO":1}},{"type":"Feature","id":182,"geometry":{"type":"Point","coordinates":[6.7069201,49.8129195]},"properties":{"OBJECTID":182,"FLUSS":"moselle","KM1":181,"KM2":181,"SPLIT":1,"BIO":1}},{"type":"Feature","id":183,"geometry":{"type":"Point","coordinates":[6.7036321,49.8043619]},"properties":{"OBJECTID":183,"FLUSS":"moselle","KM1":182,"KM2":182,"SPLIT":1,"BIO":1}},{"type":"Feature","id":184,"geometry":{"type":"Point","coordinates":[6.701004,49.7962021]},"properties":{"OBJECTID":184,"FLUSS":"moselle","KM1":183,"KM2":183,"SPLIT":1,"BIO":1}},{"type":"Feature","id":185,"geometry":{"type":"Point","coordinates":[6.7044362,49.7876499]},"properties":{"OBJECTID":185,"FLUSS":"moselle","KM1":184,"KM2":184,"SPLIT":1,"BIO":1}},{"type":"Feature","id":186,"geometry":{"type":"Point","coordinates":[6.6985451,49.7800766]},"properties":{"OBJECTID":186,"FLUSS":"moselle","KM1":185,"KM2":185,"SPLIT":1,"BIO":1}},{"type":"Feature","id":187,"geometry":{"type":"Point","coordinates":[6.6851982,49.777791]},"properties":{"OBJECTID":187,"FLUSS":"moselle","KM1":186,"KM2":186,"SPLIT":1,"BIO":1}},{"type":"Feature","id":188,"geometry":{"type":"Point","coordinates":[6.6716294,49.7758355]},"properties":{"OBJECTID":188,"FLUSS":"moselle","KM1":187,"KM2":187,"SPLIT":1,"BIO":1}},{"type":"Feature","id":189,"geometry":{"type":"Point","coordinates":[6.6581833,49.7735202]},"properties":{"OBJECTID":189,"FLUSS":"moselle","KM1":188,"KM2":188,"SPLIT":1,"BIO":1}},{"type":"Feature","id":190,"geometry":{"type":"Point","coordinates":[6.6447856,49.7711759]},"properties":{"OBJECTID":190,"FLUSS":"moselle","KM1":189,"KM2":189,"SPLIT":1,"BIO":1}},{"type":"Feature","id":191,"geometry":{"type":"Point","coordinates":[6.633623,49.7659298]},"properties":{"OBJECTID":191,"FLUSS":"moselle","KM1":190,"KM2":190,"SPLIT":1,"BIO":1}},{"type":"Feature","id":192,"geometry":{"type":"Point","coordinates":[6.6275919,49.7579462]},"properties":{"OBJECTID":192,"FLUSS":"moselle","KM1":191,"KM2":191,"SPLIT":1,"BIO":1}},{"type":"Feature","id":193,"geometry":{"type":"Point","coordinates":[6.6262078,49.7490012]},"properties":{"OBJECTID":193,"FLUSS":"moselle","KM1":192,"KM2":192,"SPLIT":1,"BIO":1}},{"type":"Feature","id":194,"geometry":{"type":"Point","coordinates":[6.6270003,49.7400271]},"properties":{"OBJECTID":194,"FLUSS":"moselle","KM1":193,"KM2":193,"SPLIT":1,"BIO":1}},{"type":"Feature","id":195,"geometry":{"type":"Point","coordinates":[6.6239843,49.7313742]},"properties":{"OBJECTID":195,"FLUSS":"moselle","KM1":194,"KM2":194,"SPLIT":1,"BIO":1}},{"type":"Feature","id":196,"geometry":{"type":"Point","coordinates":[6.6176018,49.7234144]},"properties":{"OBJECTID":196,"FLUSS":"moselle","KM1":195,"KM2":195,"SPLIT":1,"BIO":1}},{"type":"Feature","id":197,"geometry":{"type":"Point","coordinates":[6.6072843,49.7175205]},"properties":{"OBJECTID":197,"FLUSS":"moselle","KM1":196,"KM2":196,"SPLIT":1,"BIO":1}},{"type":"Feature","id":198,"geometry":{"type":"Point","coordinates":[6.5947231,49.7136587]},"properties":{"OBJECTID":198,"FLUSS":"moselle","KM1":197,"KM2":197,"SPLIT":1,"BIO":1}},{"type":"Feature","id":199,"geometry":{"type":"Point","coordinates":[6.582255,49.7096778]},"properties":{"OBJECTID":199,"FLUSS":"moselle","KM1":198,"KM2":198,"SPLIT":1,"BIO":1}},{"type":"Feature","id":200,"geometry":{"type":"Point","coordinates":[6.5715523,49.7041873]},"properties":{"OBJECTID":200,"FLUSS":"moselle","KM1":199,"KM2":199,"SPLIT":1,"BIO":1}},{"type":"Feature","id":201,"geometry":{"type":"Point","coordinates":[6.5596443,49.7015004]},"properties":{"OBJECTID":201,"FLUSS":"moselle","KM1":200,"KM2":200,"SPLIT":1,"BIO":1}},{"type":"Feature","id":202,"geometry":{"type":"Point","coordinates":[6.5484246,49.7067114]},"properties":{"OBJECTID":202,"FLUSS":"moselle","KM1":201,"KM2":201,"SPLIT":1,"BIO":1}},{"type":"Feature","id":203,"geometry":{"type":"Point","coordinates":[6.5370072,49.7118405]},"properties":{"OBJECTID":203,"FLUSS":"moselle","KM1":202,"KM2":202,"SPLIT":1,"BIO":1}},{"type":"Feature","id":204,"geometry":{"type":"Point","coordinates":[6.5240205,49.7132755]},"properties":{"OBJECTID":204,"FLUSS":"moselle","KM1":203,"KM2":203,"SPLIT":1,"BIO":1}},{"type":"Feature","id":205,"geometry":{"type":"Point","coordinates":[6.5107093,49.7113141]},"properties":{"OBJECTID":205,"FLUSS":"moselle","KM1":204,"KM2":204,"SPLIT":1,"BIO":1}},{"type":"Feature","id":206,"geometry":{"type":"Point","coordinates":[6.4983845,49.7109536]},"properties":{"OBJECTID":206,"FLUSS":"moselle","KM1":205,"KM2":205,"SPLIT":1,"BIO":1}},{"type":"Feature","id":207,"geometry":{"type":"Point","coordinates":[6.4893171,49.7041672]},"properties":{"OBJECTID":207,"FLUSS":"moselle","KM1":206,"KM2":206,"SPLIT":1,"BIO":1}},{"type":"Feature","id":208,"geometry":{"type":"Point","coordinates":[6.4805608,49.6972111]},"properties":{"OBJECTID":208,"FLUSS":"moselle","KM1":207,"KM2":207,"SPLIT":1,"BIO":1}},{"type":"Feature","id":209,"geometry":{"type":"Point","coordinates":[6.4683324,49.6930536]},"properties":{"OBJECTID":209,"FLUSS":"moselle","KM1":208,"KM2":208,"SPLIT":1,"BIO":1}},{"type":"Feature","id":210,"geometry":{"type":"Point","coordinates":[6.4570164,49.6887764]},"properties":{"OBJECTID":210,"FLUSS":"moselle","KM1":209,"KM2":209,"SPLIT":1,"BIO":1}},{"type":"Feature","id":211,"geometry":{"type":"Point","coordinates":[6.4500332,49.6810364]},"properties":{"OBJECTID":211,"FLUSS":"moselle","KM1":210,"KM2":210,"SPLIT":1,"BIO":1}},{"type":"Feature","id":212,"geometry":{"type":"Point","coordinates":[6.4416739,49.674221]},"properties":{"OBJECTID":212,"FLUSS":"moselle","KM1":211,"KM2":211,"SPLIT":1,"BIO":1}},{"type":"Feature","id":213,"geometry":{"type":"Point","coordinates":[6.4310345,49.6693918]},"properties":{"OBJECTID":213,"FLUSS":"moselle","KM1":212,"KM2":212,"SPLIT":1,"BIO":1}},{"type":"Feature","id":214,"geometry":{"type":"Point","coordinates":[6.4265282,49.6613373]},"properties":{"OBJECTID":214,"FLUSS":"moselle","KM1":213,"KM2":213,"SPLIT":1,"BIO":1}},{"type":"Feature","id":215,"geometry":{"type":"Point","coordinates":[6.4392038,49.6592324]},"properties":{"OBJECTID":215,"FLUSS":"moselle","KM1":214,"KM2":214,"SPLIT":1,"BIO":1}},{"type":"Feature","id":216,"geometry":{"type":"Point","coordinates":[6.4383875,49.6507027]},"properties":{"OBJECTID":216,"FLUSS":"moselle","KM1":215,"KM2":215,"SPLIT":1,"BIO":1}},{"type":"Feature","id":217,"geometry":{"type":"Point","coordinates":[6.4332577,49.6423475]},"properties":{"OBJECTID":217,"FLUSS":"moselle","KM1":216,"KM2":216,"SPLIT":1,"BIO":1}},{"type":"Feature","id":218,"geometry":{"type":"Point","coordinates":[6.4274856,49.6341861]},"properties":{"OBJECTID":218,"FLUSS":"moselle","KM1":217,"KM2":217,"SPLIT":1,"BIO":1}},{"type":"Feature","id":219,"geometry":{"type":"Point","coordinates":[6.4232974,49.6256461]},"properties":{"OBJECTID":219,"FLUSS":"moselle","KM1":218,"KM2":218,"SPLIT":1,"BIO":1}},{"type":"Feature","id":220,"geometry":{"type":"Point","coordinates":[6.4189024,49.6172316]},"properties":{"OBJECTID":220,"FLUSS":"moselle","KM1":219,"KM2":219,"SPLIT":1,"BIO":1}},{"type":"Feature","id":221,"geometry":{"type":"Point","coordinates":[6.4086023,49.6114107]},"properties":{"OBJECTID":221,"FLUSS":"moselle","KM1":220,"KM2":220,"SPLIT":1,"BIO":1}},{"type":"Feature","id":222,"geometry":{"type":"Point","coordinates":[6.4014459,49.6038345]},"properties":{"OBJECTID":222,"FLUSS":"moselle","KM1":221,"KM2":221,"SPLIT":1,"BIO":1}},{"type":"Feature","id":223,"geometry":{"type":"Point","coordinates":[6.3896932,49.5997412]},"properties":{"OBJECTID":223,"FLUSS":"moselle","KM1":222,"KM2":222,"SPLIT":1,"BIO":1}},{"type":"Feature","id":224,"geometry":{"type":"Point","coordinates":[6.3787627,49.5951295]},"properties":{"OBJECTID":224,"FLUSS":"moselle","KM1":223,"KM2":223,"SPLIT":1,"BIO":1}},{"type":"Feature","id":225,"geometry":{"type":"Point","coordinates":[6.3750477,49.5869481]},"properties":{"OBJECTID":225,"FLUSS":"moselle","KM1":224,"KM2":224,"SPLIT":1,"BIO":1}},{"type":"Feature","id":226,"geometry":{"type":"Point","coordinates":[6.3829631,49.5797774]},"properties":{"OBJECTID":226,"FLUSS":"moselle","KM1":225,"KM2":225,"SPLIT":1,"BIO":1}},{"type":"Feature","id":227,"geometry":{"type":"Point","coordinates":[6.373464,49.5778416]},"properties":{"OBJECTID":227,"FLUSS":"moselle","KM1":226,"KM2":226,"SPLIT":1,"BIO":1}},{"type":"Feature","id":228,"geometry":{"type":"Point","coordinates":[6.3610859,49.5762466]},"properties":{"OBJECTID":228,"FLUSS":"moselle","KM1":227,"KM2":227,"SPLIT":1,"BIO":1}}]}
