{"type":"FeatureCollection","features":[{"type":"Feature","id":1,"geometry":{"type":"Point","coordinates":[9.1183713766628927,47.669149645103552]},"properties":{"OBJECTID":1,"FLUSS":"2","KM1":5,"KM2":5,"SPLIT":1,"BIO":1}},{"type":"Feature","id":2,"geometry":{"type":"Point","coordinates":[9.0521075743428465,47.681365012935835]},"properties":{"OBJECTID":2,"FLUSS":"2","KM1":10,"KM2":10,"SPLIT":1,"BIO":1}},{"type":"Feature","id":3,"geometry":{"type":"Point","coordinates":[8.98429646834688,47.672986125707929]},"properties":{"OBJECTID":3,"FLUSS":"2","KM1":15,"KM2":15,"SPLIT":1,"BIO":1}},{"type":"Feature","id":4,"geometry":{"type":"Point","coordinates":[8.9227288355953185,47.653334136111361]},"properties":{"OBJECTID":4,"FLUSS":"2","KM1":20,"KM2":20,"SPLIT":1,"BIO":1}},{"type":"Feature","id":5,"geometry":{"type":"Point","coordinates":[8.8582747214560662,47.658567791125598]},"properties":{"OBJECTID":5,"FLUSS":"2","KM1":25,"KM2":25,"SPLIT":1,"BIO":1}},{"type":"Feature","id":6,"geometry":{"type":"Point","coordinates":[8.8015819143651441,47.677685825496603]},"properties":{"OBJECTID":6,"FLUSS":"2","KM1":30,"KM2":30,"SPLIT":1,"BIO":1}},{"type":"Feature","id":7,"geometry":{"type":"Point","coordinates":[8.7426088431590614,47.69110397070164]},"properties":{"OBJECTID":7,"FLUSS":"2","KM1":35,"KM2":35,"SPLIT":1,"BIO":1}},{"type":"Feature","id":8,"geometry":{"type":"Point","coordinates":[8.6831366152891896,47.690374209425492]},"properties":{"OBJECTID":8,"FLUSS":"2","KM1":40,"KM2":40,"SPLIT":1,"BIO":1}},{"type":"Feature","id":9,"geometry":{"type":"Point","coordinates":[8.6246186336829123,47.691290143793616]},"properties":{"OBJECTID":9,"FLUSS":"2","KM1":45,"KM2":45,"SPLIT":1,"BIO":1}},{"type":"Feature","id":10,"geometry":{"type":"Point","coordinates":[8.615227194717507,47.661230845745841]},"properties":{"OBJECTID":10,"FLUSS":"2","KM1":50,"KM2":50,"SPLIT":1,"BIO":1}},{"type":"Feature","id":11,"geometry":{"type":"Point","coordinates":[8.6048524877927903,47.64148406539109]},"properties":{"OBJECTID":11,"FLUSS":"2","KM1":55,"KM2":55,"SPLIT":1,"BIO":1}},{"type":"Feature","id":12,"geometry":{"type":"Point","coordinates":[8.5972506899439853,47.629811135598878]},"properties":{"OBJECTID":12,"FLUSS":"2","KM1":60,"KM2":60,"SPLIT":1,"BIO":1}},{"type":"Feature","id":13,"geometry":{"type":"Point","coordinates":[8.5840462052912443,47.593476690854388]},"properties":{"OBJECTID":13,"FLUSS":"2","KM1":65,"KM2":65,"SPLIT":1,"BIO":1}},{"type":"Feature","id":14,"geometry":{"type":"Point","coordinates":[8.5615266877542382,47.555563323883788]},"properties":{"OBJECTID":14,"FLUSS":"2","KM1":70,"KM2":70,"SPLIT":1,"BIO":1}},{"type":"Feature","id":15,"geometry":{"type":"Point","coordinates":[8.5157057541349559,47.576495250419541]},"properties":{"OBJECTID":15,"FLUSS":"2","KM1":75,"KM2":75,"SPLIT":1,"BIO":1}},{"type":"Feature","id":16,"geometry":{"type":"Point","coordinates":[8.4557318423355881,47.572326144314914]},"properties":{"OBJECTID":16,"FLUSS":"2","KM1":80,"KM2":80,"SPLIT":1,"BIO":1}},{"type":"Feature","id":17,"geometry":{"type":"Point","coordinates":[8.3960400326390552,47.576948963689226]},"properties":{"OBJECTID":17,"FLUSS":"2","KM1":85,"KM2":85,"SPLIT":1,"BIO":1}},{"type":"Feature","id":18,"geometry":{"type":"Point","coordinates":[8.3396220275953663,47.57032918899251]},"properties":{"OBJECTID":18,"FLUSS":"2","KM1":90,"KM2":90,"SPLIT":1,"BIO":1}},{"type":"Feature","id":19,"geometry":{"type":"Point","coordinates":[8.2959691045156809,47.597797493529541]},"properties":{"OBJECTID":19,"FLUSS":"2","KM1":95,"KM2":95,"SPLIT":1,"BIO":1}},{"type":"Feature","id":20,"geometry":{"type":"Point","coordinates":[8.2515606874641954,47.614077647864086]},"properties":{"OBJECTID":20,"FLUSS":"2","KM1":100,"KM2":100,"SPLIT":1,"BIO":1}},{"type":"Feature","id":21,"geometry":{"type":"Point","coordinates":[8.206168774941931,47.621027376162303]},"properties":{"OBJECTID":21,"FLUSS":"2","KM1":105,"KM2":105,"SPLIT":1,"BIO":1}},{"type":"Feature","id":22,"geometry":{"type":"Point","coordinates":[8.1612477362558735,47.593650497921104]},"properties":{"OBJECTID":22,"FLUSS":"2","KM1":110,"KM2":110,"SPLIT":1,"BIO":1}},{"type":"Feature","id":23,"geometry":{"type":"Point","coordinates":[8.1096668669962781,47.582441091774321]},"properties":{"OBJECTID":23,"FLUSS":"2","KM1":115,"KM2":115,"SPLIT":1,"BIO":1}},{"type":"Feature","id":24,"geometry":{"type":"Point","coordinates":[8.0712975734532737,47.564057381460437]},"properties":{"OBJECTID":24,"FLUSS":"2","KM1":120,"KM2":120,"SPLIT":1,"BIO":1}},{"type":"Feature","id":25,"geometry":{"type":"Point","coordinates":[8.0114832135472973,47.552621718005383]},"properties":{"OBJECTID":25,"FLUSS":"2","KM1":125,"KM2":125,"SPLIT":1,"BIO":1}},{"type":"Feature","id":26,"geometry":{"type":"Point","coordinates":[7.9517600670896451,47.552791441633765]},"properties":{"OBJECTID":26,"FLUSS":"2","KM1":130,"KM2":130,"SPLIT":1,"BIO":1}},{"type":"Feature","id":27,"geometry":{"type":"Point","coordinates":[7.9073244811307335,47.559554887920832]},"properties":{"OBJECTID":27,"FLUSS":"2","KM1":135,"KM2":135,"SPLIT":1,"BIO":1}},{"type":"Feature","id":28,"geometry":{"type":"Point","coordinates":[7.875815845766069,47.588475671287597]},"properties":{"OBJECTID":28,"FLUSS":"2","KM1":140,"KM2":140,"SPLIT":1,"BIO":1}},{"type":"Feature","id":29,"geometry":{"type":"Point","coordinates":[7.8176639410285036,47.585057587443565]},"properties":{"OBJECTID":29,"FLUSS":"2","KM1":145,"KM2":145,"SPLIT":1,"BIO":1}},{"type":"Feature","id":30,"geometry":{"type":"Point","coordinates":[7.7796002351292763,47.552831204218954]},"properties":{"OBJECTID":30,"FLUSS":"2","KM1":150,"KM2":150,"SPLIT":1,"BIO":1}},{"type":"Feature","id":31,"geometry":{"type":"Point","coordinates":[7.7162989893494975,47.540532144547257]},"properties":{"OBJECTID":31,"FLUSS":"2","KM1":155,"KM2":155,"SPLIT":1,"BIO":1}},{"type":"Feature","id":32,"geometry":{"type":"Point","coordinates":[7.6615112578033919,47.544520710574744]},"properties":{"OBJECTID":32,"FLUSS":"2","KM1":160,"KM2":160,"SPLIT":1,"BIO":1}},{"type":"Feature","id":33,"geometry":{"type":"Point","coordinates":[7.6076566370919405,47.556723700151601]},"properties":{"OBJECTID":33,"FLUSS":"2","KM1":165,"KM2":165,"SPLIT":1,"BIO":1}},{"type":"Feature","id":34,"geometry":{"type":"Point","coordinates":[7.5891348004935315,47.590014699188146]},"properties":{"OBJECTID":34,"FLUSS":"2","KM1":170,"KM2":170,"SPLIT":1,"BIO":1}},{"type":"Feature","id":35,"geometry":{"type":"Point","coordinates":[7.5694720996758917,47.628098160720839]},"properties":{"OBJECTID":35,"FLUSS":"2","KM1":175,"KM2":175,"SPLIT":1,"BIO":1}},{"type":"Feature","id":36,"geometry":{"type":"Point","coordinates":[7.5245027178433155,47.660322788124965]},"properties":{"OBJECTID":36,"FLUSS":"2","KM1":180,"KM2":180,"SPLIT":1,"BIO":1}},{"type":"Feature","id":37,"geometry":{"type":"Point","coordinates":[7.5136204955478849,47.702868894215435]},"properties":{"OBJECTID":37,"FLUSS":"2","KM1":185,"KM2":185,"SPLIT":1,"BIO":1}},{"type":"Feature","id":38,"geometry":{"type":"Point","coordinates":[7.5482930061645996,47.738630685248097]},"properties":{"OBJECTID":38,"FLUSS":"2","KM1":190,"KM2":190,"SPLIT":1,"BIO":1}},{"type":"Feature","id":39,"geometry":{"type":"Point","coordinates":[7.5296462394047197,47.78155824992195]},"properties":{"OBJECTID":39,"FLUSS":"2","KM1":195,"KM2":195,"SPLIT":1,"BIO":1}},{"type":"Feature","id":40,"geometry":{"type":"Point","coordinates":[7.5501031192517774,47.824321309913778]},"properties":{"OBJECTID":40,"FLUSS":"2","KM1":200,"KM2":200,"SPLIT":1,"BIO":1}},{"type":"Feature","id":41,"geometry":{"type":"Point","coordinates":[7.5560837284268141,47.866411277587368]},"properties":{"OBJECTID":41,"FLUSS":"2","KM1":205,"KM2":205,"SPLIT":1,"BIO":1}},{"type":"Feature","id":42,"geometry":{"type":"Point","coordinates":[7.5828110164651221,47.904198975459181]},"properties":{"OBJECTID":42,"FLUSS":"2","KM1":210,"KM2":210,"SPLIT":1,"BIO":1}},{"type":"Feature","id":43,"geometry":{"type":"Point","coordinates":[7.5979699695450886,47.945625478753932]},"properties":{"OBJECTID":43,"FLUSS":"2","KM1":215,"KM2":215,"SPLIT":1,"BIO":1}},{"type":"Feature","id":44,"geometry":{"type":"Point","coordinates":[7.6184814412301138,47.985564622837487]},"properties":{"OBJECTID":44,"FLUSS":"2","KM1":220,"KM2":220,"SPLIT":1,"BIO":1}},{"type":"Feature","id":45,"geometry":{"type":"Point","coordinates":[7.5815750761171659,48.022638987267719]},"properties":{"OBJECTID":45,"FLUSS":"2","KM1":225,"KM2":225,"SPLIT":1,"BIO":1}},{"type":"Feature","id":46,"geometry":{"type":"Point","coordinates":[7.5722521834197325,48.064752908778267]},"properties":{"OBJECTID":46,"FLUSS":"2","KM1":230,"KM2":230,"SPLIT":1,"BIO":1}},{"type":"Feature","id":47,"geometry":{"type":"Point","coordinates":[7.5793290125638348,48.10824233927223]},"properties":{"OBJECTID":47,"FLUSS":"2","KM1":235,"KM2":235,"SPLIT":1,"BIO":1}},{"type":"Feature","id":48,"geometry":{"type":"Point","coordinates":[7.5998143204923059,48.146581424371398]},"properties":{"OBJECTID":48,"FLUSS":"2","KM1":240,"KM2":240,"SPLIT":1,"BIO":1}},{"type":"Feature","id":49,"geometry":{"type":"Point","coordinates":[7.6306823026464654,48.185275173672736]},"properties":{"OBJECTID":49,"FLUSS":"2","KM1":245,"KM2":245,"SPLIT":1,"BIO":1}},{"type":"Feature","id":50,"geometry":{"type":"Point","coordinates":[7.6666624206783496,48.221796466278356]},"properties":{"OBJECTID":50,"FLUSS":"2","KM1":250,"KM2":250,"SPLIT":1,"BIO":1}},{"type":"Feature","id":51,"geometry":{"type":"Point","coordinates":[7.6838171719735016,48.265092338411819]},"properties":{"OBJECTID":51,"FLUSS":"2","KM1":255,"KM2":255,"SPLIT":1,"BIO":1}},{"type":"Feature","id":52,"geometry":{"type":"Point","coordinates":[7.7014243648524596,48.307877128421261]},"properties":{"OBJECTID":52,"FLUSS":"2","KM1":260,"KM2":260,"SPLIT":1,"BIO":1}},{"type":"Feature","id":53,"geometry":{"type":"Point","coordinates":[7.7452205086000721,48.335084298451896]},"properties":{"OBJECTID":53,"FLUSS":"2","KM1":265,"KM2":265,"SPLIT":1,"BIO":1}},{"type":"Feature","id":54,"geometry":{"type":"Point","coordinates":[7.7313857391831782,48.379204947500185]},"properties":{"OBJECTID":54,"FLUSS":"2","KM1":270,"KM2":270,"SPLIT":1,"BIO":1}},{"type":"Feature","id":55,"geometry":{"type":"Point","coordinates":[7.7468213333011642,48.422937540468709]},"properties":{"OBJECTID":55,"FLUSS":"2","KM1":275,"KM2":275,"SPLIT":1,"BIO":1}},{"type":"Feature","id":56,"geometry":{"type":"Point","coordinates":[7.7667837928112364,48.465254634739274]},"properties":{"OBJECTID":56,"FLUSS":"2","KM1":280,"KM2":280,"SPLIT":1,"BIO":1}},{"type":"Feature","id":57,"geometry":{"type":"Point","coordinates":[7.7944775427723938,48.501512802704845]},"properties":{"OBJECTID":57,"FLUSS":"2","KM1":285,"KM2":285,"SPLIT":1,"BIO":1}},{"type":"Feature","id":58,"geometry":{"type":"Point","coordinates":[7.8043177532679442,48.543358863776724]},"properties":{"OBJECTID":58,"FLUSS":"2","KM1":290,"KM2":290,"SPLIT":1,"BIO":1}},{"type":"Feature","id":59,"geometry":{"type":"Point","coordinates":[7.8017823740163585,48.587931429249927]},"properties":{"OBJECTID":59,"FLUSS":"2","KM1":295,"KM2":295,"SPLIT":1,"BIO":1}},{"type":"Feature","id":60,"geometry":{"type":"Point","coordinates":[7.8339139734033987,48.627165663836308]},"properties":{"OBJECTID":60,"FLUSS":"2","KM1":300,"KM2":300,"SPLIT":1,"BIO":1}},{"type":"Feature","id":61,"geometry":{"type":"Point","coordinates":[7.8789252356764079,48.657507934081131]},"properties":{"OBJECTID":61,"FLUSS":"2","KM1":305,"KM2":305,"SPLIT":1,"BIO":1}},{"type":"Feature","id":62,"geometry":{"type":"Point","coordinates":[7.9243003558851166,48.690013616652067]},"properties":{"OBJECTID":62,"FLUSS":"2","KM1":310,"KM2":310,"SPLIT":1,"BIO":1}},{"type":"Feature","id":63,"geometry":{"type":"Point","coordinates":[7.9661731599136436,48.725000700365996]},"properties":{"OBJECTID":63,"FLUSS":"2","KM1":315,"KM2":315,"SPLIT":1,"BIO":1}},{"type":"Feature","id":64,"geometry":{"type":"Point","coordinates":[7.9899150282680527,48.760421537918816]},"properties":{"OBJECTID":64,"FLUSS":"2","KM1":320,"KM2":320,"SPLIT":1,"BIO":1}},{"type":"Feature","id":65,"geometry":{"type":"Point","coordinates":[8.027923567338668,48.785529156947035]},"properties":{"OBJECTID":65,"FLUSS":"2","KM1":325,"KM2":325,"SPLIT":1,"BIO":1}},{"type":"Feature","id":66,"geometry":{"type":"Point","coordinates":[8.0863950728176714,48.801495732242437]},"properties":{"OBJECTID":66,"FLUSS":"2","KM1":330,"KM2":330,"SPLIT":1,"BIO":1}},{"type":"Feature","id":67,"geometry":{"type":"Point","coordinates":[8.110573494477352,48.842124465962023]},"properties":{"OBJECTID":67,"FLUSS":"2","KM1":335,"KM2":335,"SPLIT":1,"BIO":1}},{"type":"Feature","id":68,"geometry":{"type":"Point","coordinates":[8.1331475323869249,48.884743365095382]},"properties":{"OBJECTID":68,"FLUSS":"2","KM1":340,"KM2":340,"SPLIT":1,"BIO":1}},{"type":"Feature","id":69,"geometry":{"type":"Point","coordinates":[8.1678206570479706,48.923644281449754]},"properties":{"OBJECTID":69,"FLUSS":"2","KM1":345,"KM2":345,"SPLIT":1,"BIO":1}},{"type":"Feature","id":70,"geometry":{"type":"Point","coordinates":[8.206103921882665,48.960382983137308]},"properties":{"OBJECTID":70,"FLUSS":"2","KM1":350,"KM2":350,"SPLIT":1,"BIO":1}},{"type":"Feature","id":71,"geometry":{"type":"Point","coordinates":[8.2639391623312513,48.982414807572965]},"properties":{"OBJECTID":71,"FLUSS":"2","KM1":355,"KM2":355,"SPLIT":1,"BIO":1}},{"type":"Feature","id":72,"geometry":{"type":"Point","coordinates":[8.299277989609589,49.018552584505699]},"properties":{"OBJECTID":72,"FLUSS":"2","KM1":360,"KM2":360,"SPLIT":1,"BIO":1}},{"type":"Feature","id":73,"geometry":{"type":"Point","coordinates":[8.3177354868353017,49.061778761228169]},"properties":{"OBJECTID":73,"FLUSS":"2","KM1":365,"KM2":365,"SPLIT":1,"BIO":1}},{"type":"Feature","id":74,"geometry":{"type":"Point","coordinates":[8.3580112783405482,49.097653975565862]},"properties":{"OBJECTID":74,"FLUSS":"2","KM1":370,"KM2":370,"SPLIT":1,"BIO":1}},{"type":"Feature","id":75,"geometry":{"type":"Point","coordinates":[8.3703950655931489,49.141578676148249]},"properties":{"OBJECTID":75,"FLUSS":"2","KM1":375,"KM2":375,"SPLIT":1,"BIO":1}},{"type":"Feature","id":76,"geometry":{"type":"Point","coordinates":[8.3801897790686066,49.184260627501949]},"properties":{"OBJECTID":76,"FLUSS":"2","KM1":380,"KM2":380,"SPLIT":1,"BIO":1}},{"type":"Feature","id":77,"geometry":{"type":"Point","coordinates":[8.3865601106956849,49.228779235828483]},"properties":{"OBJECTID":77,"FLUSS":"2","KM1":385,"KM2":385,"SPLIT":1,"BIO":1}},{"type":"Feature","id":78,"geometry":{"type":"Point","coordinates":[8.435273172441784,49.259609385809121]},"properties":{"OBJECTID":78,"FLUSS":"2","KM1":390,"KM2":390,"SPLIT":1,"BIO":1}},{"type":"Feature","id":79,"geometry":{"type":"Point","coordinates":[8.485390607734514,49.288256065655425]},"properties":{"OBJECTID":79,"FLUSS":"2","KM1":395,"KM2":395,"SPLIT":1,"BIO":1}},{"type":"Feature","id":80,"geometry":{"type":"Point","coordinates":[8.4518675731413406,49.317963726206571]},"properties":{"OBJECTID":80,"FLUSS":"2","KM1":400,"KM2":400,"SPLIT":1,"BIO":1}},{"type":"Feature","id":81,"geometry":{"type":"Point","coordinates":[8.4889174472732822,49.353728692764228]},"properties":{"OBJECTID":81,"FLUSS":"2","KM1":405,"KM2":405,"SPLIT":1,"BIO":1}},{"type":"Feature","id":82,"geometry":{"type":"Point","coordinates":[8.4982702109915973,49.396000285539124]},"properties":{"OBJECTID":82,"FLUSS":"2","KM1":410,"KM2":410,"SPLIT":1,"BIO":1}},{"type":"Feature","id":83,"geometry":{"type":"Point","coordinates":[8.505776182887427,49.438883064397444]},"properties":{"OBJECTID":83,"FLUSS":"2","KM1":415,"KM2":415,"SPLIT":1,"BIO":1}},{"type":"Feature","id":84,"geometry":{"type":"Point","coordinates":[8.4430914503137533,49.449896725640187]},"properties":{"OBJECTID":84,"FLUSS":"2","KM1":420,"KM2":420,"SPLIT":1,"BIO":1}},{"type":"Feature","id":85,"geometry":{"type":"Point","coordinates":[8.4515558639268384,49.485001337564789]},"properties":{"OBJECTID":85,"FLUSS":"2","KM1":425,"KM2":425,"SPLIT":1,"BIO":1}},{"type":"Feature","id":86,"geometry":{"type":"Point","coordinates":[8.4293705720010106,49.527325074141267]},"properties":{"OBJECTID":86,"FLUSS":"2","KM1":430,"KM2":430,"SPLIT":1,"BIO":1}},{"type":"Feature","id":87,"geometry":{"type":"Point","coordinates":[8.4202637676518375,49.570643319417528]},"properties":{"OBJECTID":87,"FLUSS":"2","KM1":435,"KM2":435,"SPLIT":1,"BIO":1}},{"type":"Feature","id":88,"geometry":{"type":"Point","coordinates":[8.4056888008874218,49.607957871121016]},"properties":{"OBJECTID":88,"FLUSS":"2","KM1":440,"KM2":440,"SPLIT":1,"BIO":1}},{"type":"Feature","id":89,"geometry":{"type":"Point","coordinates":[8.3741411171798603,49.646496820355893]},"properties":{"OBJECTID":89,"FLUSS":"2","KM1":445,"KM2":445,"SPLIT":1,"BIO":1}},{"type":"Feature","id":90,"geometry":{"type":"Point","coordinates":[8.3563136402830303,49.688760338559511]},"properties":{"OBJECTID":90,"FLUSS":"2","KM1":450,"KM2":450,"SPLIT":1,"BIO":1}},{"type":"Feature","id":91,"geometry":{"type":"Point","coordinates":[8.4095772380905398,49.713442929063469]},"properties":{"OBJECTID":91,"FLUSS":"2","KM1":455,"KM2":455,"SPLIT":1,"BIO":1}},{"type":"Feature","id":92,"geometry":{"type":"Point","coordinates":[8.4568476940030752,49.743099786682706]},"properties":{"OBJECTID":92,"FLUSS":"2","KM1":460,"KM2":460,"SPLIT":1,"BIO":1}},{"type":"Feature","id":93,"geometry":{"type":"Point","coordinates":[8.4547068033280919,49.767085549160115]},"properties":{"OBJECTID":93,"FLUSS":"2","KM1":465,"KM2":465,"SPLIT":1,"BIO":1}},{"type":"Feature","id":94,"geometry":{"type":"Point","coordinates":[8.4101635682390317,49.789930147693511]},"properties":{"OBJECTID":94,"FLUSS":"2","KM1":470,"KM2":470,"SPLIT":1,"BIO":1}},{"type":"Feature","id":95,"geometry":{"type":"Point","coordinates":[8.377645711837129,49.828967755702564]},"properties":{"OBJECTID":95,"FLUSS":"2","KM1":475,"KM2":475,"SPLIT":1,"BIO":1}},{"type":"Feature","id":96,"geometry":{"type":"Point","coordinates":[8.3611903041853175,49.863497011923201]},"properties":{"OBJECTID":96,"FLUSS":"2","KM1":480,"KM2":480,"SPLIT":1,"BIO":1}},{"type":"Feature","id":97,"geometry":{"type":"Point","coordinates":[8.3495999649923931,49.902004697717381]},"properties":{"OBJECTID":97,"FLUSS":"2","KM1":485,"KM2":485,"SPLIT":1,"BIO":1}},{"type":"Feature","id":98,"geometry":{"type":"Point","coordinates":[8.3425322970844977,49.945198748570803]},"properties":{"OBJECTID":98,"FLUSS":"2","KM1":490,"KM2":490,"SPLIT":1,"BIO":1}},{"type":"Feature","id":99,"geometry":{"type":"Point","coordinates":[8.3085661378749283,49.983496269256349]},"properties":{"OBJECTID":99,"FLUSS":"2","KM1":495,"KM2":495,"SPLIT":1,"BIO":1}},{"type":"Feature","id":100,"geometry":{"type":"Point","coordinates":[8.2629934436577095,50.016643445905892]},"properties":{"OBJECTID":100,"FLUSS":"2","KM1":500,"KM2":500,"SPLIT":1,"BIO":1}},{"type":"Feature","id":101,"geometry":{"type":"Point","coordinates":[8.2041818217928295,50.037918947928652]},"properties":{"OBJECTID":101,"FLUSS":"2","KM1":505,"KM2":505,"SPLIT":1,"BIO":1}},{"type":"Feature","id":102,"geometry":{"type":"Point","coordinates":[8.1371653129002812,50.025279774733697]},"properties":{"OBJECTID":102,"FLUSS":"2","KM1":510,"KM2":510,"SPLIT":1,"BIO":1}},{"type":"Feature","id":103,"geometry":{"type":"Point","coordinates":[8.0713538322521092,50.012196234310103]},"properties":{"OBJECTID":103,"FLUSS":"2","KM1":515,"KM2":515,"SPLIT":1,"BIO":1}},{"type":"Feature","id":104,"geometry":{"type":"Point","coordinates":[8.0095293703490782,49.991728102069999]},"properties":{"OBJECTID":104,"FLUSS":"2","KM1":520,"KM2":520,"SPLIT":1,"BIO":1}},{"type":"Feature","id":105,"geometry":{"type":"Point","coordinates":[7.9462890629864074,49.973597570911124]},"properties":{"OBJECTID":105,"FLUSS":"2","KM1":525,"KM2":525,"SPLIT":1,"BIO":1}},{"type":"Feature","id":106,"geometry":{"type":"Point","coordinates":[7.8833669357489633,49.973092937286772]},"properties":{"OBJECTID":106,"FLUSS":"2","KM1":530,"KM2":530,"SPLIT":1,"BIO":1}},{"type":"Feature","id":107,"geometry":{"type":"Point","coordinates":[7.8552509846896461,50.010226437065171]},"properties":{"OBJECTID":107,"FLUSS":"2","KM1":535,"KM2":535,"SPLIT":1,"BIO":1}},{"type":"Feature","id":108,"geometry":{"type":"Point","coordinates":[7.8039334105470557,50.039887234846837]},"properties":{"OBJECTID":108,"FLUSS":"2","KM1":540,"KM2":540,"SPLIT":1,"BIO":1}},{"type":"Feature","id":109,"geometry":{"type":"Point","coordinates":[7.7737454486530773,50.075705612849454]},"properties":{"OBJECTID":109,"FLUSS":"2","KM1":545,"KM2":545,"SPLIT":1,"BIO":1}},{"type":"Feature","id":110,"geometry":{"type":"Point","coordinates":[7.7281880596380388,50.109531417869782]},"properties":{"OBJECTID":110,"FLUSS":"2","KM1":550,"KM2":550,"SPLIT":1,"BIO":1}},{"type":"Feature","id":111,"geometry":{"type":"Point","coordinates":[7.7247226008610799,50.144370472661379]},"properties":{"OBJECTID":111,"FLUSS":"2","KM1":555,"KM2":555,"SPLIT":1,"BIO":1}},{"type":"Feature","id":112,"geometry":{"type":"Point","coordinates":[7.6758173027445959,50.170112239995547]},"properties":{"OBJECTID":112,"FLUSS":"2","KM1":560,"KM2":560,"SPLIT":1,"BIO":1}},{"type":"Feature","id":113,"geometry":{"type":"Point","coordinates":[7.6436599525388278,50.201561566366003]},"properties":{"OBJECTID":113,"FLUSS":"2","KM1":565,"KM2":565,"SPLIT":1,"BIO":1}},{"type":"Feature","id":114,"geometry":{"type":"Point","coordinates":[7.5990191480561968,50.233746460568064]},"properties":{"OBJECTID":114,"FLUSS":"2","KM1":570,"KM2":570,"SPLIT":1,"BIO":1}},{"type":"Feature","id":115,"geometry":{"type":"Point","coordinates":[7.6141673283345392,50.248347610608882]},"properties":{"OBJECTID":115,"FLUSS":"2","KM1":575,"KM2":575,"SPLIT":1,"BIO":1}},{"type":"Feature","id":116,"geometry":{"type":"Point","coordinates":[7.6435380392144312,50.269593698023371]},"properties":{"OBJECTID":116,"FLUSS":"2","KM1":580,"KM2":580,"SPLIT":1,"BIO":1}},{"type":"Feature","id":117,"geometry":{"type":"Point","coordinates":[7.5971364076152437,50.302952194297838]},"properties":{"OBJECTID":117,"FLUSS":"2","KM1":585,"KM2":585,"SPLIT":1,"BIO":1}},{"type":"Feature","id":118,"geometry":{"type":"Point","coordinates":[7.5995704919941955,50.345980131602808]},"properties":{"OBJECTID":118,"FLUSS":"2","KM1":590,"KM2":590,"SPLIT":1,"BIO":1}},{"type":"Feature","id":119,"geometry":{"type":"Point","coordinates":[7.6075691329794948,50.388510419944154]},"properties":{"OBJECTID":119,"FLUSS":"2","KM1":595,"KM2":595,"SPLIT":1,"BIO":1}},{"type":"Feature","id":120,"geometry":{"type":"Point","coordinates":[7.5547458624490149,50.417484314110339]},"properties":{"OBJECTID":120,"FLUSS":"2","KM1":600,"KM2":600,"SPLIT":1,"BIO":1}},{"type":"Feature","id":121,"geometry":{"type":"Point","coordinates":[7.489356846856106,50.41186598635808]},"properties":{"OBJECTID":121,"FLUSS":"2","KM1":605,"KM2":605,"SPLIT":1,"BIO":1}},{"type":"Feature","id":122,"geometry":{"type":"Point","coordinates":[7.4424970271695914,50.439153028582858]},"properties":{"OBJECTID":122,"FLUSS":"2","KM1":610,"KM2":610,"SPLIT":1,"BIO":1}},{"type":"Feature","id":123,"geometry":{"type":"Point","coordinates":[7.378504975614578,50.450833913438856]},"properties":{"OBJECTID":123,"FLUSS":"2","KM1":615,"KM2":615,"SPLIT":1,"BIO":1}},{"type":"Feature","id":124,"geometry":{"type":"Point","coordinates":[7.333921078009543,50.485331668496897]},"properties":{"OBJECTID":124,"FLUSS":"2","KM1":620,"KM2":620,"SPLIT":1,"BIO":1}},{"type":"Feature","id":125,"geometry":{"type":"Point","coordinates":[7.2957240124940679,50.522671627298919]},"properties":{"OBJECTID":125,"FLUSS":"2","KM1":625,"KM2":625,"SPLIT":1,"BIO":1}},{"type":"Feature","id":126,"geometry":{"type":"Point","coordinates":[7.2750795014366387,50.56555522108723]},"properties":{"OBJECTID":126,"FLUSS":"2","KM1":630,"KM2":630,"SPLIT":1,"BIO":1}},{"type":"Feature","id":127,"geometry":{"type":"Point","coordinates":[7.2168877710971655,50.586912178701603]},"properties":{"OBJECTID":127,"FLUSS":"2","KM1":635,"KM2":635,"SPLIT":1,"BIO":1}},{"type":"Feature","id":128,"geometry":{"type":"Point","coordinates":[7.2118220265302693,50.630000221559818]},"properties":{"OBJECTID":128,"FLUSS":"2","KM1":640,"KM2":640,"SPLIT":1,"BIO":1}},{"type":"Feature","id":129,"geometry":{"type":"Point","coordinates":[7.1906833057125148,50.671351028847582]},"properties":{"OBJECTID":129,"FLUSS":"2","KM1":645,"KM2":645,"SPLIT":1,"BIO":1}},{"type":"Feature","id":130,"geometry":{"type":"Point","coordinates":[7.1596139249840203,50.711059006930604]},"properties":{"OBJECTID":130,"FLUSS":"2","KM1":650,"KM2":650,"SPLIT":1,"BIO":1}},{"type":"Feature","id":131,"geometry":{"type":"Point","coordinates":[7.1103039092592839,50.738806127487678]},"properties":{"OBJECTID":131,"FLUSS":"2","KM1":655,"KM2":655,"SPLIT":1,"BIO":1}},{"type":"Feature","id":132,"geometry":{"type":"Point","coordinates":[7.0665554140360749,50.771230515401548]},"properties":{"OBJECTID":132,"FLUSS":"2","KM1":660,"KM2":660,"SPLIT":1,"BIO":1}},{"type":"Feature","id":133,"geometry":{"type":"Point","coordinates":[7.0307453052026716,50.805427545951943]},"properties":{"OBJECTID":133,"FLUSS":"2","KM1":665,"KM2":665,"SPLIT":1,"BIO":1}},{"type":"Feature","id":134,"geometry":{"type":"Point","coordinates":[6.9820288266776638,50.831036440507489]},"properties":{"OBJECTID":134,"FLUSS":"2","KM1":670,"KM2":670,"SPLIT":1,"BIO":1}},{"type":"Feature","id":135,"geometry":{"type":"Point","coordinates":[7.0195169104088295,50.864292375462504]},"properties":{"OBJECTID":135,"FLUSS":"2","KM1":675,"KM2":675,"SPLIT":1,"BIO":1}},{"type":"Feature","id":136,"geometry":{"type":"Point","coordinates":[7.0363286259141615,50.893646624095531]},"properties":{"OBJECTID":136,"FLUSS":"2","KM1":680,"KM2":680,"SPLIT":1,"BIO":1}},{"type":"Feature","id":137,"geometry":{"type":"Point","coordinates":[6.9780050521631614,50.911443022425509]},"properties":{"OBJECTID":137,"FLUSS":"2","KM1":685,"KM2":685,"SPLIT":1,"BIO":1}},{"type":"Feature","id":138,"geometry":{"type":"Point","coordinates":[6.9744338706673208,50.953171241629455]},"properties":{"OBJECTID":138,"FLUSS":"2","KM1":690,"KM2":690,"SPLIT":1,"BIO":1}},{"type":"Feature","id":139,"geometry":{"type":"Point","coordinates":[6.9788484192854616,50.984660159209319]},"properties":{"OBJECTID":139,"FLUSS":"2","KM1":695,"KM2":695,"SPLIT":1,"BIO":1}},{"type":"Feature","id":140,"geometry":{"type":"Point","coordinates":[6.9728449394278353,51.023559370335853]},"properties":{"OBJECTID":140,"FLUSS":"2","KM1":700,"KM2":700,"SPLIT":1,"BIO":1}},{"type":"Feature","id":141,"geometry":{"type":"Point","coordinates":[6.920369856962596,51.053163207647948]},"properties":{"OBJECTID":141,"FLUSS":"2","KM1":705,"KM2":705,"SPLIT":1,"BIO":1}},{"type":"Feature","id":142,"geometry":{"type":"Point","coordinates":[6.8589726696362963,51.074466507233339]},"properties":{"OBJECTID":142,"FLUSS":"2","KM1":710,"KM2":710,"SPLIT":1,"BIO":1}},{"type":"Feature","id":143,"geometry":{"type":"Point","coordinates":[6.8826742748801575,51.10943441056169]},"properties":{"OBJECTID":143,"FLUSS":"2","KM1":715,"KM2":715,"SPLIT":1,"BIO":1}},{"type":"Feature","id":144,"geometry":{"type":"Point","coordinates":[6.8509274487471803,51.14571627581649]},"properties":{"OBJECTID":144,"FLUSS":"2","KM1":720,"KM2":720,"SPLIT":1,"BIO":1}},{"type":"Feature","id":145,"geometry":{"type":"Point","coordinates":[6.8210973030415474,51.14703854193062]},"properties":{"OBJECTID":145,"FLUSS":"2","KM1":725,"KM2":725,"SPLIT":1,"BIO":1}},{"type":"Feature","id":146,"geometry":{"type":"Point","coordinates":[6.797792211798483,51.172527882188902]},"properties":{"OBJECTID":146,"FLUSS":"2","KM1":730,"KM2":730,"SPLIT":1,"BIO":1}},{"type":"Feature","id":147,"geometry":{"type":"Point","coordinates":[6.7400448482909328,51.182272789167065]},"properties":{"OBJECTID":147,"FLUSS":"2","KM1":735,"KM2":735,"SPLIT":1,"BIO":1}},{"type":"Feature","id":148,"geometry":{"type":"Point","coordinates":[6.7235073156653549,51.223641004102213]},"properties":{"OBJECTID":148,"FLUSS":"2","KM1":740,"KM2":740,"SPLIT":1,"BIO":1}},{"type":"Feature","id":149,"geometry":{"type":"Point","coordinates":[6.7690392188377881,51.233128145817588]},"properties":{"OBJECTID":149,"FLUSS":"2","KM1":745,"KM2":745,"SPLIT":1,"BIO":1}},{"type":"Feature","id":150,"geometry":{"type":"Point","coordinates":[6.7171472196828814,51.260190735833568]},"properties":{"OBJECTID":150,"FLUSS":"2","KM1":750,"KM2":750,"SPLIT":1,"BIO":1}},{"type":"Feature","id":151,"geometry":{"type":"Point","coordinates":[6.7261108629865181,51.296572074175835]},"properties":{"OBJECTID":151,"FLUSS":"2","KM1":755,"KM2":755,"SPLIT":1,"BIO":1}},{"type":"Feature","id":152,"geometry":{"type":"Point","coordinates":[6.711410051868107,51.334584500630179]},"properties":{"OBJECTID":152,"FLUSS":"2","KM1":760,"KM2":760,"SPLIT":1,"BIO":1}},{"type":"Feature","id":153,"geometry":{"type":"Point","coordinates":[6.6551070572797739,51.357585055838285]},"properties":{"OBJECTID":153,"FLUSS":"2","KM1":765,"KM2":765,"SPLIT":1,"BIO":1}},{"type":"Feature","id":154,"geometry":{"type":"Point","coordinates":[6.715467802033479,51.375269176464762]},"properties":{"OBJECTID":154,"FLUSS":"2","KM1":770,"KM2":770,"SPLIT":1,"BIO":1}},{"type":"Feature","id":155,"geometry":{"type":"Point","coordinates":[6.7408485897958288,51.412946294071524]},"properties":{"OBJECTID":155,"FLUSS":"2","KM1":775,"KM2":775,"SPLIT":1,"BIO":1}},{"type":"Feature","id":156,"geometry":{"type":"Point","coordinates":[6.720216578824636,51.450317603893268]},"properties":{"OBJECTID":156,"FLUSS":"2","KM1":780,"KM2":780,"SPLIT":1,"BIO":1}},{"type":"Feature","id":157,"geometry":{"type":"Point","coordinates":[6.6815375271914794,51.478636265834311]},"properties":{"OBJECTID":157,"FLUSS":"2","KM1":785,"KM2":785,"SPLIT":1,"BIO":1}},{"type":"Feature","id":158,"geometry":{"type":"Point","coordinates":[6.7245737131481054,51.508617826054561]},"properties":{"OBJECTID":158,"FLUSS":"2","KM1":790,"KM2":790,"SPLIT":1,"BIO":1}},{"type":"Feature","id":159,"geometry":{"type":"Point","coordinates":[6.6768629819148035,51.539993823815671]},"properties":{"OBJECTID":159,"FLUSS":"2","KM1":795,"KM2":795,"SPLIT":1,"BIO":1}},{"type":"Feature","id":160,"geometry":{"type":"Point","coordinates":[6.6680764621452946,51.577219182768147]},"properties":{"OBJECTID":160,"FLUSS":"2","KM1":800,"KM2":800,"SPLIT":1,"BIO":1}},{"type":"Feature","id":161,"geometry":{"type":"Point","coordinates":[6.602208997528491,51.570845392222225]},"properties":{"OBJECTID":161,"FLUSS":"2","KM1":805,"KM2":805,"SPLIT":1,"BIO":1}},{"type":"Feature","id":162,"geometry":{"type":"Point","coordinates":[6.5889102854011385,51.614340687099187]},"properties":{"OBJECTID":162,"FLUSS":"2","KM1":810,"KM2":810,"SPLIT":1,"BIO":1}},{"type":"Feature","id":163,"geometry":{"type":"Point","coordinates":[6.5976358209267465,51.654401752801235]},"properties":{"OBJECTID":163,"FLUSS":"2","KM1":815,"KM2":815,"SPLIT":1,"BIO":1}},{"type":"Feature","id":164,"geometry":{"type":"Point","coordinates":[6.5286739991254503,51.661666149082684]},"properties":{"OBJECTID":164,"FLUSS":"2","KM1":820,"KM2":820,"SPLIT":1,"BIO":1}},{"type":"Feature","id":165,"geometry":{"type":"Point","coordinates":[6.4733558495760057,51.67971741024315]},"properties":{"OBJECTID":165,"FLUSS":"2","KM1":825,"KM2":825,"SPLIT":1,"BIO":1}},{"type":"Feature","id":166,"geometry":{"type":"Point","coordinates":[6.429723970816573,51.709720851187186]},"properties":{"OBJECTID":166,"FLUSS":"2","KM1":830,"KM2":830,"SPLIT":1,"BIO":1}},{"type":"Feature","id":167,"geometry":{"type":"Point","coordinates":[6.4215220581329318,51.744709307364381]},"properties":{"OBJECTID":167,"FLUSS":"2","KM1":835,"KM2":835,"SPLIT":1,"BIO":1}},{"type":"Feature","id":168,"geometry":{"type":"Point","coordinates":[6.3578603806432099,51.754656183123124]},"properties":{"OBJECTID":168,"FLUSS":"2","KM1":840,"KM2":840,"SPLIT":1,"BIO":1}},{"type":"Feature","id":169,"geometry":{"type":"Point","coordinates":[6.3215132360157673,51.789080072241369]},"properties":{"OBJECTID":169,"FLUSS":"2","KM1":845,"KM2":845,"SPLIT":1,"BIO":1}},{"type":"Feature","id":170,"geometry":{"type":"Point","coordinates":[6.2700687209238462,51.819652045729676]},"properties":{"OBJECTID":170,"FLUSS":"2","KM1":850,"KM2":850,"SPLIT":1,"BIO":1}},{"type":"Feature","id":171,"geometry":{"type":"Point","coordinates":[6.2010215015934111,51.830328496653756]},"properties":{"OBJECTID":171,"FLUSS":"2","KM1":855,"KM2":855,"SPLIT":1,"BIO":1}},{"type":"Feature","id":172,"geometry":{"type":"Point","coordinates":[6.1345699967771914,51.847814146529473]},"properties":{"OBJECTID":172,"FLUSS":"2","KM1":860,"KM2":860,"SPLIT":1,"BIO":1}},{"type":"Feature","id":173,"geometry":{"type":"Point","coordinates":[6.0715721462673065,51.863104092470039]},"properties":{"OBJECTID":173,"FLUSS":"2","KM1":865,"KM2":865,"SPLIT":1,"BIO":1}},{"type":"Feature","id":174,"geometry":{"type":"Point","coordinates":[6.0120070111376069,51.881495028315321]},"properties":{"OBJECTID":174,"FLUSS":"2","KM1":870,"KM2":870,"SPLIT":1,"BIO":1}},{"type":"Feature","id":175,"geometry":{"type":"Point","coordinates":[5.9673323412080181,51.853645604648968]},"properties":{"OBJECTID":175,"FLUSS":"2","KM1":875,"KM2":875,"SPLIT":1,"BIO":1}},{"type":"Feature","id":176,"geometry":{"type":"Point","coordinates":[5.9133024176572082,51.872996084326552]},"properties":{"OBJECTID":176,"FLUSS":"2","KM1":880,"KM2":880,"SPLIT":1,"BIO":1}},{"type":"Feature","id":177,"geometry":{"type":"Point","coordinates":[5.8622428744855037,51.850949469615522]},"properties":{"OBJECTID":177,"FLUSS":"2","KM1":885,"KM2":885,"SPLIT":1,"BIO":1}},{"type":"Feature","id":178,"geometry":{"type":"Point","coordinates":[5.8060298153248171,51.873309183253475]},"properties":{"OBJECTID":178,"FLUSS":"2","KM1":890,"KM2":890,"SPLIT":1,"BIO":1}},{"type":"Feature","id":179,"geometry":{"type":"Point","coordinates":[5.7411898178519776,51.884465881837038]},"properties":{"OBJECTID":179,"FLUSS":"2","KM1":895,"KM2":895,"SPLIT":1,"BIO":1}},{"type":"Feature","id":180,"geometry":{"type":"Point","coordinates":[5.6769812000817073,51.895101200790187]},"properties":{"OBJECTID":180,"FLUSS":"2","KM1":900,"KM2":900,"SPLIT":1,"BIO":1}},{"type":"Feature","id":181,"geometry":{"type":"Point","coordinates":[5.6099033064217467,51.898889358013335]},"properties":{"OBJECTID":181,"FLUSS":"2","KM1":905,"KM2":905,"SPLIT":1,"BIO":1}},{"type":"Feature","id":182,"geometry":{"type":"Point","coordinates":[5.5436459473747082,51.897508936340742]},"properties":{"OBJECTID":182,"FLUSS":"2","KM1":910,"KM2":910,"SPLIT":1,"BIO":1}},{"type":"Feature","id":183,"geometry":{"type":"Point","coordinates":[5.4788940950057903,51.889290224149711]},"properties":{"OBJECTID":183,"FLUSS":"2","KM1":915,"KM2":915,"SPLIT":1,"BIO":1}},{"type":"Feature","id":184,"geometry":{"type":"Point","coordinates":[5.425447509274834,51.869328137358089]},"properties":{"OBJECTID":184,"FLUSS":"2","KM1":920,"KM2":920,"SPLIT":1,"BIO":1}},{"type":"Feature","id":185,"geometry":{"type":"Point","coordinates":[5.3933535817700173,51.833959893760905]},"properties":{"OBJECTID":185,"FLUSS":"2","KM1":925,"KM2":925,"SPLIT":1,"BIO":1}},{"type":"Feature","id":186,"geometry":{"type":"Point","coordinates":[5.3504368977384296,51.804630799084975]},"properties":{"OBJECTID":186,"FLUSS":"2","KM1":930,"KM2":930,"SPLIT":1,"BIO":1}},{"type":"Feature","id":187,"geometry":{"type":"Point","coordinates":[5.2961321188336692,51.824429994346119]},"properties":{"OBJECTID":187,"FLUSS":"2","KM1":935,"KM2":935,"SPLIT":1,"BIO":1}},{"type":"Feature","id":188,"geometry":{"type":"Point","coordinates":[5.2308879366099923,51.814522457552982]},"properties":{"OBJECTID":188,"FLUSS":"2","KM1":940,"KM2":940,"SPLIT":1,"BIO":1}},{"type":"Feature","id":189,"geometry":{"type":"Point","coordinates":[5.1666035820535408,51.817581600161013]},"properties":{"OBJECTID":189,"FLUSS":"2","KM1":945,"KM2":945,"SPLIT":1,"BIO":1}},{"type":"Feature","id":190,"geometry":{"type":"Point","coordinates":[5.1030484851462639,51.824210914916748]},"properties":{"OBJECTID":190,"FLUSS":"2","KM1":950,"KM2":950,"SPLIT":1,"BIO":1}},{"type":"Feature","id":191,"geometry":{"type":"Point","coordinates":[5.0401938989530386,51.81824703385103]},"properties":{"OBJECTID":191,"FLUSS":"2","KM1":955,"KM2":955,"SPLIT":1,"BIO":1}},{"type":"Feature","id":192,"geometry":{"type":"Point","coordinates":[4.9737535653354223,51.823873143045695]},"properties":{"OBJECTID":192,"FLUSS":"2","KM1":960,"KM2":960,"SPLIT":1,"BIO":1}},{"type":"Feature","id":193,"geometry":{"type":"Point","coordinates":[4.9084167622376791,51.825798743359705]},"properties":{"OBJECTID":193,"FLUSS":"2","KM1":965,"KM2":965,"SPLIT":1,"BIO":1}},{"type":"Feature","id":194,"geometry":{"type":"Point","coordinates":[4.8537307005002388,51.801938012352053]},"properties":{"OBJECTID":194,"FLUSS":"2","KM1":970,"KM2":970,"SPLIT":1,"BIO":1}},{"type":"Feature","id":195,"geometry":{"type":"Point","coordinates":[4.7881568535062904,51.798590340860706]},"properties":{"OBJECTID":195,"FLUSS":"2","KM1":975,"KM2":975,"SPLIT":1,"BIO":1}},{"type":"Feature","id":196,"geometry":{"type":"Point","coordinates":[4.7460593848012627,51.768845057895867]},"properties":{"OBJECTID":196,"FLUSS":"2","KM1":980,"KM2":980,"SPLIT":1,"BIO":1}},{"type":"Feature","id":197,"geometry":{"type":"Point","coordinates":[4.70345988488498,51.737374984095133]},"properties":{"OBJECTID":197,"FLUSS":"2","KM1":985,"KM2":985,"SPLIT":1,"BIO":1}},{"type":"Feature","id":198,"geometry":{"type":"Point","coordinates":[6.0257449380797867,51.892591799261588]},"properties":{"OBJECTID":198,"FLUSS":"2_1","KM1":870,"KM2":870,"SPLIT":1,"BIO":1}},{"type":"Feature","id":199,"geometry":{"type":"Point","coordinates":[5.9760774591364134,51.92402359788943]},"properties":{"OBJECTID":199,"FLUSS":"2_1","KM1":875,"KM2":875,"SPLIT":1,"BIO":1}},{"type":"Feature","id":200,"geometry":{"type":"Point","coordinates":[5.9371755292553114,51.959933277712217]},"properties":{"OBJECTID":200,"FLUSS":"2_1","KM1":880,"KM2":880,"SPLIT":1,"BIO":1}},{"type":"Feature","id":201,"geometry":{"type":"Point","coordinates":[5.8810313178148155,51.980372298429941]},"properties":{"OBJECTID":201,"FLUSS":"2_1","KM1":885,"KM2":885,"SPLIT":1,"BIO":1}},{"type":"Feature","id":202,"geometry":{"type":"Point","coordinates":[5.8193367357409587,51.968456156784896]},"properties":{"OBJECTID":202,"FLUSS":"2_1","KM1":890,"KM2":890,"SPLIT":1,"BIO":1}},{"type":"Feature","id":203,"geometry":{"type":"Point","coordinates":[5.7541487815304366,51.967050919494618]},"properties":{"OBJECTID":203,"FLUSS":"2_1","KM1":895,"KM2":895,"SPLIT":1,"BIO":1}},{"type":"Feature","id":204,"geometry":{"type":"Point","coordinates":[5.6860389815781369,51.959201238860913]},"properties":{"OBJECTID":204,"FLUSS":"2_1","KM1":900,"KM2":900,"SPLIT":1,"BIO":1}},{"type":"Feature","id":205,"geometry":{"type":"Point","coordinates":[5.6240282627298637,51.941168149358447]},"properties":{"OBJECTID":205,"FLUSS":"2_1","KM1":905,"KM2":905,"SPLIT":1,"BIO":1}},{"type":"Feature","id":206,"geometry":{"type":"Point","coordinates":[5.5568500584561438,51.955562608249004]},"properties":{"OBJECTID":206,"FLUSS":"2_1","KM1":910,"KM2":910,"SPLIT":1,"BIO":1}},{"type":"Feature","id":207,"geometry":{"type":"Point","coordinates":[5.4979314610684868,51.979156425357999]},"properties":{"OBJECTID":207,"FLUSS":"2_1","KM1":915,"KM2":915,"SPLIT":1,"BIO":1}},{"type":"Feature","id":208,"geometry":{"type":"Point","coordinates":[5.4294628739044457,51.982566278140801]},"properties":{"OBJECTID":208,"FLUSS":"2_1","KM1":920,"KM2":920,"SPLIT":1,"BIO":1}},{"type":"Feature","id":209,"geometry":{"type":"Point","coordinates":[5.3629291049100392,51.971455273688044]},"properties":{"OBJECTID":209,"FLUSS":"2_1","KM1":925,"KM2":925,"SPLIT":1,"BIO":1}},{"type":"Feature","id":210,"geometry":{"type":"Point","coordinates":[5.3025421412487495,51.961487575016271]},"properties":{"OBJECTID":210,"FLUSS":"2_1","KM1":930,"KM2":930,"SPLIT":1,"BIO":1}},{"type":"Feature","id":211,"geometry":{"type":"Point","coordinates":[5.2389078588057663,51.97999747452598]},"properties":{"OBJECTID":211,"FLUSS":"2_1","KM1":935,"KM2":935,"SPLIT":1,"BIO":1}},{"type":"Feature","id":212,"geometry":{"type":"Point","coordinates":[5.1843737318153753,51.966147736308208]},"properties":{"OBJECTID":212,"FLUSS":"2_1","KM1":940,"KM2":940,"SPLIT":1,"BIO":1}},{"type":"Feature","id":213,"geometry":{"type":"Point","coordinates":[5.1322420702259048,51.992861676077894]},"properties":{"OBJECTID":213,"FLUSS":"2_1","KM1":945,"KM2":945,"SPLIT":1,"BIO":1}},{"type":"Feature","id":214,"geometry":{"type":"Point","coordinates":[5.0682204097212136,51.995892682018081]},"properties":{"OBJECTID":214,"FLUSS":"2_1","KM1":950,"KM2":950,"SPLIT":1,"BIO":1}},{"type":"Feature","id":215,"geometry":{"type":"Point","coordinates":[5.0159744745281527,51.972347034083505]},"properties":{"OBJECTID":215,"FLUSS":"2_1","KM1":955,"KM2":955,"SPLIT":1,"BIO":1}},{"type":"Feature","id":216,"geometry":{"type":"Point","coordinates":[4.959277628107797,51.961329966350007]},"properties":{"OBJECTID":216,"FLUSS":"2_1","KM1":960,"KM2":960,"SPLIT":1,"BIO":1}},{"type":"Feature","id":217,"geometry":{"type":"Point","coordinates":[4.9066564287295487,51.942537312509714]},"properties":{"OBJECTID":217,"FLUSS":"2_1","KM1":965,"KM2":965,"SPLIT":1,"BIO":1}},{"type":"Feature","id":218,"geometry":{"type":"Point","coordinates":[4.8356659406732643,51.942487125756564]},"properties":{"OBJECTID":218,"FLUSS":"2_1","KM1":970,"KM2":970,"SPLIT":1,"BIO":1}},{"type":"Feature","id":219,"geometry":{"type":"Point","coordinates":[4.7788267902737971,51.917761584066206]},"properties":{"OBJECTID":219,"FLUSS":"2_1","KM1":975,"KM2":975,"SPLIT":1,"BIO":1}},{"type":"Feature","id":220,"geometry":{"type":"Point","coordinates":[4.7158387651730846,51.897895198711161]},"properties":{"OBJECTID":220,"FLUSS":"2_1","KM1":980,"KM2":980,"SPLIT":1,"BIO":1}},{"type":"Feature","id":221,"geometry":{"type":"Point","coordinates":[4.6455093102923328,51.890997204755507]},"properties":{"OBJECTID":221,"FLUSS":"2_1","KM1":985,"KM2":985,"SPLIT":1,"BIO":1}},{"type":"Feature","id":222,"geometry":{"type":"Point","coordinates":[4.5794646085551847,51.902844758716114]},"properties":{"OBJECTID":222,"FLUSS":"2_1","KM1":990,"KM2":990,"SPLIT":1,"BIO":1}},{"type":"Feature","id":223,"geometry":{"type":"Point","coordinates":[4.5151411916943927,51.907013865180687]},"properties":{"OBJECTID":223,"FLUSS":"2_1","KM1":995,"KM2":995,"SPLIT":1,"BIO":1}},{"type":"Feature","id":224,"geometry":{"type":"Point","coordinates":[4.4646381812958342,51.901355080573275]},"properties":{"OBJECTID":224,"FLUSS":"2_1","KM1":1000,"KM2":1000,"SPLIT":1,"BIO":1}},{"type":"Feature","id":225,"geometry":{"type":"Point","coordinates":[4.3937748526801048,51.897518801967117]},"properties":{"OBJECTID":225,"FLUSS":"2_1","KM1":1005,"KM2":1005,"SPLIT":1,"BIO":1}},{"type":"Feature","id":226,"geometry":{"type":"Point","coordinates":[4.3231803678147109,51.894051927848615]},"properties":{"OBJECTID":226,"FLUSS":"2_1","KM1":1010,"KM2":1010,"SPLIT":1,"BIO":1}},{"type":"Feature","id":227,"geometry":{"type":"Point","coordinates":[4.2560384220387846,51.909497143816701]},"properties":{"OBJECTID":227,"FLUSS":"2_1","KM1":1015,"KM2":1015,"SPLIT":1,"BIO":1}},{"type":"Feature","id":228,"geometry":{"type":"Point","coordinates":[4.2009621718950534,51.937494611019879]},"properties":{"OBJECTID":228,"FLUSS":"2_1","KM1":1020,"KM2":1020,"SPLIT":1,"BIO":1}},{"type":"Feature","id":229,"geometry":{"type":"Point","coordinates":[4.1428897788355661,51.964429325396502]},"properties":{"OBJECTID":229,"FLUSS":"2_1","KM1":1025,"KM2":1025,"SPLIT":1,"BIO":1}},{"type":"Feature","id":230,"geometry":{"type":"Point","coordinates":[5.9536914552554094,51.963816685940259]},"properties":{"OBJECTID":230,"FLUSS":"2_2","KM1":880,"KM2":880,"SPLIT":1,"BIO":1}},{"type":"Feature","id":231,"geometry":{"type":"Point","coordinates":[6.0072572142948477,51.987916226552137]},"properties":{"OBJECTID":231,"FLUSS":"2_2","KM1":885,"KM2":885,"SPLIT":1,"BIO":1}},{"type":"Feature","id":232,"geometry":{"type":"Point","coordinates":[6.0575288105992913,52.012907431353916]},"properties":{"OBJECTID":232,"FLUSS":"2_2","KM1":890,"KM2":890,"SPLIT":1,"BIO":1}},{"type":"Feature","id":233,"geometry":{"type":"Point","coordinates":[6.1059285979112037,51.994182326605404]},"properties":{"OBJECTID":233,"FLUSS":"2_2","KM1":895,"KM2":895,"SPLIT":1,"BIO":1}},{"type":"Feature","id":234,"geometry":{"type":"Point","coordinates":[6.1288896298774063,52.031712590559295]},"properties":{"OBJECTID":234,"FLUSS":"2_2","KM1":900,"KM2":900,"SPLIT":1,"BIO":1}},{"type":"Feature","id":235,"geometry":{"type":"Point","coordinates":[6.1456853897562267,52.062684476299211]},"properties":{"OBJECTID":235,"FLUSS":"2_2","KM1":905,"KM2":905,"SPLIT":1,"BIO":1}},{"type":"Feature","id":236,"geometry":{"type":"Point","coordinates":[6.1929285657347695,52.091022377833454]},"properties":{"OBJECTID":236,"FLUSS":"2_2","KM1":910,"KM2":910,"SPLIT":1,"BIO":1}},{"type":"Feature","id":237,"geometry":{"type":"Point","coordinates":[6.1994672364098005,52.113641830022146]},"properties":{"OBJECTID":237,"FLUSS":"2_2","KM1":915,"KM2":915,"SPLIT":1,"BIO":1}},{"type":"Feature","id":238,"geometry":{"type":"Point","coordinates":[6.1840959080187599,52.15186982689616]},"properties":{"OBJECTID":238,"FLUSS":"2_2","KM1":920,"KM2":920,"SPLIT":1,"BIO":1}},{"type":"Feature","id":239,"geometry":{"type":"Point","coordinates":[6.1724106055852976,52.188175311804514]},"properties":{"OBJECTID":239,"FLUSS":"2_2","KM1":925,"KM2":925,"SPLIT":1,"BIO":1}},{"type":"Feature","id":240,"geometry":{"type":"Point","coordinates":[6.1931024343018741,52.212124428493048]},"properties":{"OBJECTID":240,"FLUSS":"2_2","KM1":930,"KM2":930,"SPLIT":1,"BIO":1}},{"type":"Feature","id":241,"geometry":{"type":"Point","coordinates":[6.1616147746159156,52.248119006174662]},"properties":{"OBJECTID":241,"FLUSS":"2_2","KM1":935,"KM2":935,"SPLIT":1,"BIO":1}},{"type":"Feature","id":242,"geometry":{"type":"Point","coordinates":[6.1140607210497642,52.27939944659262]},"properties":{"OBJECTID":242,"FLUSS":"2_2","KM1":940,"KM2":940,"SPLIT":1,"BIO":1}},{"type":"Feature","id":243,"geometry":{"type":"Point","coordinates":[6.094647226219192,52.320418664801558]},"properties":{"OBJECTID":243,"FLUSS":"2_2","KM1":945,"KM2":945,"SPLIT":1,"BIO":1}},{"type":"Feature","id":244,"geometry":{"type":"Point","coordinates":[6.0913939685547644,52.360132046197826]},"properties":{"OBJECTID":244,"FLUSS":"2_2","KM1":950,"KM2":950,"SPLIT":1,"BIO":1}},{"type":"Feature","id":245,"geometry":{"type":"Point","coordinates":[6.1253827382618775,52.380909544763611]},"properties":{"OBJECTID":245,"FLUSS":"2_2","KM1":955,"KM2":955,"SPLIT":1,"BIO":1}},{"type":"Feature","id":246,"geometry":{"type":"Point","coordinates":[6.131452615088353,52.423768862461479]},"properties":{"OBJECTID":246,"FLUSS":"2_2","KM1":960,"KM2":960,"SPLIT":1,"BIO":1}},{"type":"Feature","id":247,"geometry":{"type":"Point","coordinates":[6.104153749448944,52.462700421474807]},"properties":{"OBJECTID":247,"FLUSS":"2_2","KM1":965,"KM2":965,"SPLIT":1,"BIO":1}},{"type":"Feature","id":248,"geometry":{"type":"Point","coordinates":[6.060610238151062,52.495797372388481]},"properties":{"OBJECTID":248,"FLUSS":"2_2","KM1":970,"KM2":970,"SPLIT":1,"BIO":1}},{"type":"Feature","id":249,"geometry":{"type":"Point","coordinates":[6.0204418703948992,52.526564612276289]},"properties":{"OBJECTID":249,"FLUSS":"2_2","KM1":975,"KM2":975,"SPLIT":1,"BIO":1}},{"type":"Feature","id":250,"geometry":{"type":"Point","coordinates":[5.9633803569723955,52.51782767719866]},"properties":{"OBJECTID":250,"FLUSS":"2_2","KM1":980,"KM2":980,"SPLIT":1,"BIO":1}},{"type":"Feature","id":251,"geometry":{"type":"Point","coordinates":[5.9272027496821904,52.552778124878131]},"properties":{"OBJECTID":251,"FLUSS":"2_2","KM1":985,"KM2":985,"SPLIT":1,"BIO":1}},{"type":"Feature","id":252,"geometry":{"type":"Point","coordinates":[5.8720897860549144,52.581255745009813]},"properties":{"OBJECTID":252,"FLUSS":"2_2","KM1":990,"KM2":990,"SPLIT":1,"BIO":1}},{"type":"Feature","id":253,"geometry":{"type":"Point","coordinates":[9.1787710320156215,47.666172456181371]},"properties":{"OBJECTID":253,"FLUSS":" ","KM1":0,"KM2":0,"SPLIT":0,"BIO":1}},{"type":"Feature","id":254,"geometry":{"type":"Point","coordinates":[4.6435944210324029,51.71985513793804]},"properties":{"OBJECTID":254,"FLUSS":"2","KM1":990,"KM2":990,"SPLIT":1,"BIO":0}},{"type":"Feature","id":255,"geometry":{"type":"Point","coordinates":[4.5816503321477562,51.703798934830353]},"properties":{"OBJECTID":255,"FLUSS":"2","KM1":995,"KM2":995,"SPLIT":1,"BIO":0}},{"type":"Feature","id":256,"geometry":{"type":"Point","coordinates":[4.5174986680193738,51.693013316529544]},"properties":{"OBJECTID":256,"FLUSS":"2","KM1":1000,"KM2":1000,"SPLIT":1,"BIO":0}},{"type":"Feature","id":257,"geometry":{"type":"Point","coordinates":[4.4528211628103787,51.703354312032147]},"properties":{"OBJECTID":257,"FLUSS":"2","KM1":1005,"KM2":1005,"SPLIT":1,"BIO":0}},{"type":"Feature","id":258,"geometry":{"type":"Point","coordinates":[4.3884618418551291,51.715228907874348]},"properties":{"OBJECTID":258,"FLUSS":"2","KM1":1010,"KM2":1010,"SPLIT":1,"BIO":0}},{"type":"Feature","id":259,"geometry":{"type":"Point","coordinates":[4.3219971633515417,51.720439840505911]},"properties":{"OBJECTID":259,"FLUSS":"2","KM1":1015,"KM2":1015,"SPLIT":1,"BIO":0}},{"type":"Feature","id":260,"geometry":{"type":"Point","coordinates":[4.2629453813725871,51.738371789105116]},"properties":{"OBJECTID":260,"FLUSS":"2","KM1":1020,"KM2":1020,"SPLIT":1,"BIO":0}},{"type":"Feature","id":261,"geometry":{"type":"Point","coordinates":[4.2179901227052365,51.76899210370869]},"properties":{"OBJECTID":261,"FLUSS":"2","KM1":1025,"KM2":1025,"SPLIT":1,"BIO":0}},{"type":"Feature","id":262,"geometry":{"type":"Point","coordinates":[4.164244619500086,51.794006581969782]},"properties":{"OBJECTID":262,"FLUSS":"2","KM1":1030,"KM2":1030,"SPLIT":1,"BIO":0}},{"type":"Feature","id":263,"geometry":{"type":"Point","coordinates":[4.104272456956398,51.812662326741375]},"properties":{"OBJECTID":263,"FLUSS":"2","KM1":1035,"KM2":1035,"SPLIT":1,"BIO":0}}]}
